X,Y,Name,Direcci__n,Localidad,Provincia,Web,Tlf,X,Y,_info,info,n
0.0,0.000000026167978,Camping El Torcal,Ctra. 7075, km. 49, 29200 Antequera, Málaga,Antequera,Málaga,campingeltorcal.com,952 11 16 08,36.98634,-4.53231
0.0,0.000000026167978,Camping Presa La Viñuela,La Viñuela, 356, 29713 Málaga,Los Romanes,Málaga,campinglavinuela.es,952 55 45 62,36.8738955,-4.1850209,
0.0,0.000000026167978,Camping Málaga: Lazy Days Spain,Calle Cañadas, s/n, 29532 Mollina, Málaga,Mollina,Málaga,lazydaysinspain.com,952 74 02 36,37.1286811,-4.6543235
0.0,0.000000026167978,"Camping, A Coruña, A Lagoa Valdoviño",Aldea a Lagoa, 9, 15552 Valdoviño, A Coruña,Valdoviño,A Coruña,campingalagoa.com,881 06 26 56,"436,121,755",-81
0.0,0.000000026167978,Camping La Ballena Alegre Costa Brava,"Carretera Sant Martí d&apos;Empúries", s/n, 17470, Girona,San Martín de Ampurias,Girona,ballena-alegre.com,972 52 03 02,"421,531,793",31
0.0,0.000000026167978,Camping Caballo de Mar,Passeig Marítim, 52, 08397 Pineda de Mar, Barcelona,Pineda de Mar,Barcelona,caballodemar.com,937 67 17 06,"416,185,311",26
0.0,0.000000026167978,Camping El Mirador de Cabañeros,Cañada Real, s/n, 13110 Horcajo de los Montes, Cdad. Real,Horcajo de los Montes,Cdad. Real,campingcabaneros.com,926 77 54 39,"39,323,077",-4
0.0,0.000000026167978,CAMPING BARDENAS,Ctra. NA-660, PK 13.4, 31330 Villafranca, Navarra,Villafranca,Navarra,campingbardenas.com,948 84 61 91,"422,632,791",-17
0.0,0.000000026167978,Camping Albufera de Anna,Paraje del Lago, S/N, 46820 Anna, Valencia,Anna,Valencia,ajuntamentanna.es,962 21 05 63,"390,087,656",-0.6560414
0.0,0.000000026167978,Camping Alfacs,Av. Mar, 1, 43530 Alcanar, Tarragona,Alcanar,Tarragona,campingalfacs.negocio.site,977 74 05 61,"405,951,645",0.5705454
0.0,0.000000026167978,"Camping Capfun Amfora d&apos;Arcs",N340 Km 1145, 43850 Cambrils, T,Cambrils,T,capfun.com,977 36 12 11,"41,078,591",1,065
0.0,0.000000026167978,Camping Ampolla Playa,Passeig Platja Arenal, s/n," 43895 L&apos;Ampolla", T,La Ampolla,T,campingampolla.es,977 46 05 35,"407,987,932",0.6992448
0.0,0.000000026167978,Camping Angosto,Ctra, Angosto Errepidea, 2 bis, 01426 Villanañe, Álava,Villanañe,Álava,camping-angosto.com,945 35 32 71,42.8423553
0.0,0.000000026167978,Camping Playa de Taurán Asturias,Paraje Taurán, s/n, 33700 Luarca Valdés, Asturias,San Martín,Asturias,campingtauran.com,985 64 12 72,"435,513,174",-65
0.0,0.000000026167978,Camping Baliera,N-260, Km 355,5, 22486 Bonansa, Huesca,Bonansa,Huesca,baliera.com,974 55 40 16,"42,439,647"
0.0,0.000000026167978,Camping Bellsol,Passeig Marítim, 46, 08397 Pineda de Mar, Barcelona,Pineda de Mar,Barcelona,campingbellsol.com,937 67 17 78,"41,619,099",26
0.0,0.000000026167978,Camping Benabarre,Calle Aurignac, s/n, 22580 Benabarre, Huesca,Benabarre,Huesca,campingbenabarre.es,974 54 35 72,"421,109,703",0.4811883
0.0,0.000000026167978,Camping Blanes,Av. Vila de Madrid, 33, 17300 Blanes, Girona,Blanes,Girona,campingblanes.com,972 33 15 91,"416,591,043",27
0.0,0.000000026167978,Camping Bolaso,Ctra. Gallur Sangüesa Km. 46, 1, 50600 Ejea de los Caballeros, Zaragoza,Ejea de los Caballeros,Zaragoza,bolaso.es,976 66 80 43,"421,782,035",-11
0.0,0.000000026167978,"Camping &amp; Bungalows Leagi",Barrio Leagi, 4, 48289, BI,Leagi Auzoa,BI,campingleagi.com,946 84 23 52,"43,351,537",-24
0.0,0.000000026167978,Camping Bungalows Rio Jerte,Carrera 110, km. 375.800, 10613 Navaconcejo, Cáceres,Navaconcejo,Cáceres,campingriojerte.com,927 17 30 06,"401,702,806",-58
0.0,0.000000026167978,Camping Cala Montgó,Avinguda de Montgó, s/n," 17130 L&apos;Escala", Girona,La Escala,Girona,campingcalamontgo.com,972 77 08 66,"421,102,995",31
0.0,0.000000026167978,Camping de Candeleda,Paraje el Llano, S/N, 05480 Candeleda, Ávila,Candeleda,Ávila,campingcandeleda.es,607 95 45 97,"401,431,899",-52
0.0,0.000000026167978,Camping Castillo de Baños - Grupo Campingred,CN 340, Km 360, 18750 Castillo de Baños,Castillo de Baños,Castillo de Baños,campingcastillo.com,958 82 95 28,"36,740,615",-3,301
0.0,0.000000026167978,Camping Cazalegas,Embalse de cazalegas, TO-1261, 45683 Cazalegas, Toledo,Cazalegas,Toledo,complejothedreams.com,925 87 26 25,"40,013,503",-4
0.0,0.000000026167978,CAMPING COBIJO,SO-830, 42150 Vinuesa, Soria,Vinuesa,Soria,campingcobijo.com,975 37 83 31,"419,260,619",-2,763
0.0,0.000000026167978,Camping DON QUIJOTE,Carrer Via Herculea, 30, 43893 Altafulla, Tarragona,Altafulla,Tarragona,campingdonquijote.es,977 65 02 05,"411,378,272",13
0.0,0.000000026167978,Camping El Garrofer,C-246a, Km. 39, 08870 Sitges, Barcelona,Sitges,Barcelona,campingelgarrofer.com,938 94 17 80,"412,333,765",17
0.0,0.000000026167978,Camping El Molino,Barrio La Vega, Potes a 8km Carretera Soberado-Dobres, 39577 La Vega de Liébana, Cantabria,La Vega,Cantabria,campingencantabria.com,942 73 60 09,"43,094,681",-4
0.0,0.000000026167978,camping el portal de la sierra,Carr. de Tamames, km1, 37760 Linares de Riofrío, Salamanca,Linares de Riofrío,Salamanca,campingelportaldelasierra.es,648 67 90 67,"405,905,508",-59
0.0,0.000000026167978,"Camping El Roble - Bungalow &amp; Glamping Matarraña",231 Km, Calle A, 18, 44580 Valderrobres, Teruel,Valderrobres,Teruel,campingelroble.com,608 31 84 81,"408,821,768"
0.0,0.000000026167978,Camping el Roble Verde,Carretera A3322, Nuvilla Entitatea, km.24, 01428, Álava,Nuvilla,Álava,campingelrobleverde.com,945 06 33 50,42.7953607
0.0,0.000000026167978,Camping Els Ports,Crta. T-330 Km 12. Arnes a Horta de Sant Joan, 43597 Arnes, Terra Alta, T,Arnes,T,camping-elsports.com,977 43 55 60,"40,918,822",0.267743
0.0,0.000000026167978,"Camping Emporda: Bungalows en l&apos;Estartit","Carretera a l&apos;Estartit", km 4,8," 17258 L&apos;Estartit", Girona,Estartit,Girona,campingemporda.com,972 75 06 49,"420,502,403"
0.0,0.000000026167978,Camping Estartit,Carrer Villa Primavera, 12," 17258 L&apos;Estartit", Girona,Estartit,Girona,campingestartit.com,972 75 19 09,"420,567,751",31
0.0,0.000000026167978,Camping Etxarri,Lugar, Danbolintxulo, 0 S N, 31820 Etxarri-Aranatz, Navarra,Echarri-Aranaz,Navarra,campingetxarri.com,948 46 05 37,"429,128,461"
0.0,0.000000026167978,Camping Ezcaba,Carretera N-121A, Km 7 Carretera Pamplona-Irun, Km 7, 31194 Orikain, Navarra,Oricáin,Navarra,campingezcaba.com,948 33 03 15,"428,571,973"
0.0,0.000000026167978,Camping Fuentes Carrionas,Calle Antonio Villanueva, S/N, 34840 Cervera de Pisuerga, Palencia,Cervera de Pisuerga,Palencia,campingfuentescarrionas.com,979 87 04 24,"428,726,592",-45
0.0,0.000000026167978,Camping Giralda Isla Cristina,Carr. Prov. 4117, Isla Cristina-La Antilla Km 1,5, 21410 Isla Cristina, Huelva,Isla Cristina,Huelva,campinggiralda.com,959 34 33 18,37.200106
0.0,0.000000026167978,Camping Globo Rojo Barcelona,Carrer Drassanes de Pla, 46, 08360 Canet de Mar, Barcelona,Canet de Mar,Barcelona,globo-rojo.com,937 94 11 43,"415,913,202",25
0.0,0.000000026167978,Camping Granada,Paraje, Cerro de la Cruz, 18210, Granada,Peligros,Granada,campinggranada.es,958 34 05 48,37.2414475,-3.6311893
0.0,0.000000026167978,"Camping municipal de Agüero,peña sola",Calle Afueras, s/n, 22808 Agüero, Huesca,Agüero,Huesca,campingaguerohuesca.com,636 66 14 70,"423,553,268",-0.7971025
0.0,0.000000026167978,Camping Bungalows Igueldo San Sebastián,Padre Orkolaga Ibilbidea, 69, 20008 Donostia, Gipuzkoa,San Sebastián,Gipuzkoa,campingigueldo.com,943 21 45 02,"433,047,504",-20
0.0,0.000000026167978,Camping Jávea,Cami de la Fontana, 10, Acesso por Calle Liverpool, 9, 03730 Xàbia, Alicante,Jávea,Alicante,campingjavea.es,965 79 10 70
0.0,0.000000026167978,Camping Joan Bungalow Park,Passeig Marítim, 88, 43850 Cambrils, Tarragona,Cambrils,Tarragona,campingjoan.com,977 36 46 04,"410,578,018",1
0.0,0.000000026167978,Camping Kims,Carrer de Ciceró, 56, 17211 Llafranc, Girona,Llafranch,Girona,campingkims.com,972 30 11 56,"418,988,045",31
0.0,0.000000026167978,"Camping King&apos;s",Platja de la Fosca, s/n, 17230 Palamós, Girona,Palamós,Girona,campingkings.com,972 31 75 11,"418,626,454",31
0.0,0.000000026167978,Camping La Bella Vista,Crtra Nacional 340 km 142.8, 29692 Alcorrín, Málaga,Alcorrín,Málaga,campinglabellavista.com,952 89 00 20,36.346811,-5.235995,https://g.page/campinglabellavista?share
0.0,0.000000026167978,Camping Restaurante La Estanca,Camino de Valmuel, s/n, 44600 Alcañiz, Teruel,Alcañiz,Teruel,campinglaestanca.com,978 72 60 96,"410,671,076",-0.1867532
0.0,0.000000026167978,Camping La Estepa,Calle Afueras, s/n, 22223 Valfarta, Huesca,Valfarta,Huesca,camping-la-estepa.negocio.site,605 94 90 06,"415,615,071",-0.1311219
0.0,0.000000026167978,Camping La Fuente,Calle de la Bocamina, 30626 Los Baños de Fortuna, Murcia,Los Baños de Fortuna,Murcia,campingfuente.com,968 68 62 43,"382,065,799",-11,071
0.0,0.000000026167978,Camping La Pineda de Salou,Carretera de la Costa Tarragona a Salou, Km 5, 43481 La Pineda, T,La Pineda,T,campinglapineda.com,977 37 30 80,"41,088,375",118
0.0,0.000000026167978,Camping Las Lomas,Carretera de Güejar Sierra km 6.5, 18160 Güejar Sierra, Granada,Güejar Sierra,Granada,campinglaslomas.com,958 48 47 42,37.1593972,-3.454792,https://g.page/campinglaslomas?share
0.0,0.000000026167978,"Las Palmeras Camping &amp; Bungalow Tarragona",N-340, km 1168, 43007 Tarragona,Tarragona,Tarragona,laspalmeras.com,977 20 80 81,"411,306,203",13,121
0.0,0.000000026167978,Camping Las Salinas,Platja Llarga, C.N. 340, Km. 1167, 43007 Tarragona, T,Tarragona,T,campinglasalinas.com,977 20 76 28,"411,300,659"
0.0,0.000000026167978,Càmping Ecològic Lava,"Carretera d&apos;Olot a Santa Pau", km 7, 17811 Santa Pau, Girona, Girona,Santa Pau,Girona,campinglava.com,972 68 03 58,"421,520,123"
0.0,0.000000026167978,Camping Granada - Los Bermejales,Pantano de los bermejales s/n, 18126, Granada,Pantano de los Bermejales,Granada,campinglosbermejales.com,958 35 91 90,36.9949066,-3.8802589,https://g.page/CAMPING-LOS-BERMEJALES?share
0.0,0.000000026167978,Camping Los Jarales,Calle Mérida de Jarales, 29649 Costa, Málaga,Calahonda,Málaga,campinglosjarales.com,952 93 00 03,36.4892931,-4.717617,https://g.page/camping-los-jarales?share
0.0,0.000000026167978,Camping Madrid Arco iris,Carretera Villaviciosa de Odón a Boadilla del Monte, M-501, 100, Km 7, 28670 Villaviciosa de Odón, Madrid,Villaviciosa de Odón,Madrid,campingmadridarcoiris.com,916 16 03 87
0.0,0.000000026167978,Camping Natura,Partida casals, 46842 Rugat, Valencia,Rugat,Valencia,campingnatura.com,962 81 41 66,"38,876,866",-0.358077,https://g.page/camping-natura-rugat?share
0.0,0.000000026167978,Camping-Naturista Almanat -Bungalows Naturista Almanat-FKK,Ctra. N-340 kilómetro 269, 29749 Almayate, Málaga,Almayate,Málaga,almanat.es,952 55 64 62,36.7267157,-4.1131347,https://g.page/CampingNaturistaAlmanat?share
0.0,0.000000026167978,Camping Neptuno,Carrer Rodors, 23, 17256 Pals, Girona,Pals,Girona,campingneptuno.com,972 63 67 31,"419,934,921",31
0.0,0.000000026167978,Camping El Tranquilo - Camping Pinoso - Adultos Solo - NO Children,Casas Ibanez 24, 03650 Pinoso, Alicante,Pinoso,Alicante,campingeltranquilo.es,865 77 52 43,"384,094,989",-10,870
0.0,0.000000026167978,Camping Playa de Ajo,La Bandera, 1295, 39170, Cantabria,Ajo,Cantabria,campingplayadeajo.com,942 62 12 22,"43,495,251",-3
0.0,0.000000026167978,Camping Playa de Arija,Calle Gran via, 09570 Arija, Burgos,Arija,Burgos,campingplayadearija.com,942 77 33 00,"43,000,582",-394,496
0.0,0.000000026167978,Camping Playa de Vega,Playa de Vega, s/n, 33345 Ribadesella, Asturias,Ribadesella,Asturias,campingplayadevega.com,985 86 04 06,"43,474,854",-5
0.0,0.000000026167978,Camping Playa de Mazarrón,Av. Pedro López Meca, s/n, 30877 Bolnuevo, Murcia,Bolnuevo,Murcia,playamazarron.com,968 15 06 60,"375,630,424",-13
0.0,0.000000026167978,"CAMPING PUIGCERCOS.Camping y alquiler de caravanas en Borredà, Barcelona",Ctra Sant Quirze a, Carrer de Berga, Km 22, 08619 Borredà, Barcelona,Borredá,Barcelona,campingpuigcercos.com,938 23 92 50,"421,312,785"
0.0,0.000000026167978,Camping Rural Ría de Arosa 2,Calle Balteiro, s/n, 15993 Oleiros, C,Oleiros,C,campingriadearousa.com,981 86 59 11,"426,210,634",-89
0.0,0.000000026167978,Camping Ridaura - Llagostera,Càmping Ridaura, Via de Servei, C-65, 17240, Girona,Santa Maria de Solius,Girona,campingridaura.com,639 43 45 57,"418,279,232"
0.0,0.000000026167978,Camping Cañón del Río Lobos,Carretera El Burgo San Leonardo, Km 17, 42317 Ucero, Soria,Ucero,Soria,campingriolobos.es,975 36 35 65,"417,293,452",-30
0.0,0.000000026167978,Camping Roche,Carril de Pilahito, 11149 Roche, Cádiz,Roche,Cádiz,campingroche.com,956 44 22 16,36.3107939,-6.1126746,https://g.page/camping-roche?share
0.0,0.000000026167978,Camping San Javier,Av. de Balsicas, 84, 30730 San Javier, Murcia,San Javier,Murcia,campingsanjavier.com,968 19 10 80,"378,068,824",-0.8455363
0.0,0.000000026167978,Camping San Rafael,Carr. Peizas, 27789 Foz, Lugo,Foz,Lugo,campingsanrafael.com,982 13 22 18,"43,587,727",-728,239
0.0,0.000000026167978,Camping Sènia RIU,Carr. de la platja, s/n, 17470, Girona,Bon Relax,Girona,campingriu.com,972 52 02 16,"421,885,052",30
0.0,0.000000026167978,Camping Solmar,Carrer de Cristòfor Colom, 48, 17300 Blanes, Girona,Blanes,Girona,,972 34 80 34,"416,619,616",27
0.0,0.000000026167978,CAMPING SOLOPUENT CASTIELLO DE JACA,Carretera de Bescos, S/N, 22710 Castiello de Jaca, Huesca,Castiello de Jaca,Huesca,solopuent.com,974 35 00 46,"426,241,581",-0.5437002
0.0,0.000000026167978,Camping Playa Taray,Ctra. La Antilla - Isla Cristina, Km 4,1, 21430 Isla Cristina, Huelva,Isla Cristina,Huelva,campingtaray.com,959 34 11 02,37.204986
0.0,0.000000026167978,Camping Rural Teruel Casa Fausto,Carretera Castellar, s/n, 44440 Formiche Alto, Teruel,Formiche Alto,Teruel,casafausto.es,978 67 01 21,"403,299,494",-0.8859958
0.0,0.000000026167978,Camping Valle de Nocito | Habitaciones Rurales Casa Ortas Albas,Camino De la Pillera, 0 S/N, 22622 Nocito, Huesca,Nocito,Huesca,business.site,615 05 99 61,"423,204,356",-0.2542914
0.0,0.000000026167978,Camping Venta de Contreras Ecoresort,"Carretera de Contreras km 2&apos;5", 16260 Minglanilla, Cuenca,Minglanilla,Cuenca,laventadecontreras.com,606 87 42 06,"395,400,267",-15,078
0.0,0.000000026167978,Camping Cabopino,Calle Marbella, Km.194,7, 29604 Málaga,Marbella,Málaga,campingcabopino.com,952 83 43 73,"36,489,006",-4
0.0,0.000000026167978,Camping Village Doñarrayan Park,Ctra. Hinojos - El Rocío Km. 7, 21740 Hinojos, Huelva,Hinojos,Huelva,donarrayan-park.com,959 02 75 02,37.2431808,-6.382321,https://g.page/Donarrayan?share
0.0,0.000000026167978,Eco Camping Arbizu,Paraje Utzu, Km 5, 31839 Arbizu, Navarra,Arbizu,Navarra,campingarbizu.com,848 47 09 22,"428,984,751",-20
0.0,0.000000026167978,Camping el Templo del Sol,Via Augusta," 43890 L&apos;Hospitalet de l&apos;Infant", Tarragona,Hospitalet del Infante,Tarragona,eltemplodelsol.com,977 82 34 34,"40,977,031",0.9011338,https://g.page/eltemplodelsol?share
0.0,0.000000026167978,Camping Entrerrobles,Carretera Valdeavellano de Tera - Molinos de Razón, S/N, 42165 Valdeavellano de Tera, Soria,Valdeavellano de Tera,Soria,campingentrerrobles.com,975 18 08 00,"41,945,415",-2
0.0,0.000000026167978,Camping La Gaviota Costa Brava,Carr. de la platja, s/n, 17470 Sant Pere Pescador, Girona,San Pedro Pescador,Girona,lagaviota.com,972 52 05 69,"421,893,477",31
0.0,0.000000026167978,Camping el Far / MKT - Agency,N-II, km 666, 08370 Calella, Barcelona,Calella,Barcelona,facebook.com,937 67 20 90,"41,610,297",26
0.0,0.000000026167978,Camping y Bungalows La Chopera,CTRA. N-110, KM 401,300 / 10600, 10600 Plasencia, Cáceres,Plasencia,Cáceres,campinglachopera.es,927 41 66 60,"400,454,582"
0.0,0.000000026167978,Camping Lago de Barasona,N-123a, Km. 25, 22435, Huesca,La Puebla de Castro,Huesca,lagobarasona.com,974 54 51 48,"421,417,672",0.3145678
0.0,0.000000026167978,Camping La Llosa | Camping Cambrils,Cami de les Lloses 7, | Acceso Crta. Nacional 340, 43850 Cambrils, T,Cambrils,T,camping-lallosa.com,977 36 26 15,"410,652,452",10
0.0,0.000000026167978,"La Siesta Salou Resort &amp; Camping",Carrer del Nord, 37, 43840 Salou, Tarragona,Salou,Tarragona,lasiestasalou.com,977 38 08 52,"410,783,283",11
0.0,0.000000026167978,Camping Oasis Mar,Carretera València-Barcelona N-340, Km.1139, 43892 Mont-roig del Camp, T,Montroig,T,oasismar.com,977 17 95 95,"410,475,755",10
0.0,0.000000026167978,Camping Playa Brava,Avinguda del Grau, 1, 17256 Pals, Girona,Pals,Girona,booking.playabrava.com,972 63 68 94,"42,001,234",3
0.0,0.000000026167978,Camping Los Herrenes,Calle Borrico Parra, 29, 28411 Moralzarzal, Madrid,Moralzarzal,Madrid,,918 57 60 19,"406,754,712",-39
0.0,0.000000026167978,Càmping Rural Montori,Camí Vell de Rupià, s/n, 17133 Ultramort, Girona,Ultramort,Girona,campingruralmontori.com,616 03 08 36,"420,317,266",30
0.0,0.000000026167978,Càmping Serra de Prades Resort,Carrer de Sant Antoni, s/n, 43439 Vilanova de Prades, Tarragona,Vilanova de Prades,Tarragona,serradeprades.com,977 86 90 50,"41,348,858",0.958621
0.0,0.000000026167978,Camping Montaña Roja - El Médano,La Tejita 1bajo, Ctra, TF-643, Km 3, 38612 El Médano, Santa Cruz de Tenerife,El Médano,Santa Cruz de Tenerife,campingmontañaroja.es,922 04 99 80
0.0,0.000000026167978,Camping Valverde Natural,Av. Eljas, 0, 10890 Valverde del Fresno, Cáceres,Valverde del Fresno,Cáceres,valverdenatural.com,627 90 38 92,"40,223,475",-68
0.0,0.000000026167978,Camping Las Vegas,Camino La Habana, 30, 04770 Adra, Almería,La Curva,Almería,campinglasvegas.jimdo.com,950 16 22 28,36.7432947,-2.9656541
0.0,0.000000026167978,Camping Sierra de Francia,El Casarito (Carretera Salamanca - La Alberca, Km 73, 37659 Nava de Francia, Salamanca,Nava de Francia,Salamanca,campingsierradefrancia.com,923 45 40 81,"40,521,519",-61
0.0,0.000000026167978,La Tancada,Poligono 78, Ctra. Sant Carles de la Rapita - Salines, s/n, 43870 Amposta, T,Poblenou del Delta,T,tancada.com,977 26 10 47,"406,455,839"
0.0,0.000000026167978,Camping El Ruedo,Paseo San Julián, 24, 26300 Nájera, La Rioja,Nájera,La Rioja,,941 36 01 02,"42,413,111",-27
0.0,0.000000026167978,Càmping les Preses Natura,Sector La Boada, s/n, 17178 Les Preses, Girona,Preses,Girona,campingnatura.cat,972 69 20 93,"421,418,737",24
0.0,0.000000026167978,Camping Ainsa,Camino Pueyo de Araguas, 22338, Huesca,Aínsa,Huesca,campingainsa.com,974 50 02 60,"424,207,524",0.1502841,https://goo.gl/maps/1NdoLuwkSr7s6ywP8
0.0,0.000000026167978,Camping Ciudad de Zaragoza,Calle San Juan Bautista de la Salle, s/n, 50012 Zaragoza,"Casablanca, Zaragoza",Zaragoza,campingzaragoza.com,876 24 14 95,"416,379,694",-0.9429778,https://goo.gl/maps/1QFmQZu6EW1SofkeA
0.0,0.000000026167978,Camping Zuriza,Carretera Ansó-Zuriza, km 14, 22728 Ansó, Huesca,Ansó,Huesca,campingzuriza.es,974 37 01 96,"42,866,214",-0.812441
0.0,0.000000026167978,Masía Camping Mas Bermellons,Carretera GI-623, 17466 Vilopriu, Girona,San Mori,Girona,bodasmasiagirona.com,620 86 76 19,"42,139,601",30,028
0.0,0.000000026167978,Camping Las Arenas,Ctra, Km. 2, 39594 Pechón, Cantabria,Pechón,Cantabria,campinglasarenas.com,942 71 71 88,"43,391,348",-4
0.0,0.000000026167978,Camping Chopera,Carretera del Tranco A-319 Km. 53, 23478 Coto-Ríos, Jaén,Coto-Ríos,Jaén,campingchopera.es,953 71 30 05,38.048023,-2.851295,https://goo.gl/maps/1VLaXANbd3kWVq2a6
0.0,0.000000026167978,Camping Los Ibores,Crta. Ex 118 Guadalupe-Navalmoral de la Mata km 30, 10340 Castañar de Ibor, Cáceres,Castañar de Ibor,Cáceres,campinglosibores.es,605 94 08 78,"39,634,944",-54,209
0.0,0.000000026167978,Camping Sandaya Cypsela Resort,Rodors, 7, 17256, Girona,Els Masos de Pals,Girona,sandaya.fr,972 66 76 96,"419,859,304",31
0.0,0.000000026167978,Camping los Eucaliptos,Carr. del Pradillo, 11140 Conil de la Frontera, Cádiz,Conil de la Frontera,Cádiz,campingloseucaliptos.com,956 44 12 72,36.2868385,-6.0914603,https://goo.gl/maps/26erX4Sb7zEveaNS8
0.0,0.000000026167978,Camping Playa y fiesta,N-340, 43892, T,"Playa y Fiesta, Mont-roig del Camp",T,campingplayayfiesta.com,977 17 95 13,"41,043,947",0.9946537,https://goo.gl/maps/28KR2iRRnivZMEEr8
0.0,0.000000026167978,Camping Ruta del Purche,Km 18, Calle Sierra Nevada, 18193, Granada,Canales,Granada,campingrutadelpurche.es,958 34 04 08,37.138444,-3.491928
0.0,0.000000026167978,Camping Ruta de la Plata,Camino Alto a los Villares, 37798 Villamayor, Salamanca,Villamayor,Salamanca,campingrutadelaplata.com,923 28 95 74,"40,999,457",-5,678
0.0,0.000000026167978,Càmping TERRA ALTA,Ctra Bot a Prat de Compte Km-1, 43785 Bot, T,Bot,T,campingterraalta.com,673 45 06 51,"41,006,933",0.378706,https://goo.gl/maps/2Dc7kSxvuroqzYwP7
0.0,0.000000026167978,Camping Hoces de Mira,Calle Fuente, 16393 Mira, Cuenca,Mira,Cuenca,,695 90 66 91,"397,147,423",-14,366
0.0,0.000000026167978,Camping Valdevaqueros,N-340, Km 75.5, 11380 Tarifa, Cádiz,Tarifa,Cádiz,campingvaldevaqueros.com,956 68 41 74,36.0692625,-5.6805365
0.0,0.000000026167978,Camping Puente Colgante,Camino De Benecid, 0, 04460 Fondón, Almería,Fondón,Almería,,950 51 42 91,"369,847,012",-28
0.0,0.000000026167978,Camping Peña Montañesa,Ctra. Ainsa - Bielsa, km. 2, 22360 Labuerda, Huesca,Labuerda,Huesca,penamontanesa.com,974 50 00 32,"424,351,747",0.136061
0.0,0.000000026167978,Camping Alto De Viñuelas,Calle Granada, 17, 18184 Beas de Granada, Granada,Beas de Granada,Granada,campingaltodevinuelas.com,647 30 78 12,"372,252,445",-34
0.0,0.000000026167978,Camping Lloret Blau,"Carrer de l&apos;Aiguaviva s/n", 17310 Lloret de Mar, Girona,Lloret de Mar,Girona,campinglloretblau.com,972 36 54 83,"417,057,497",28,429
0.0,0.000000026167978,Camping Escarra,Carretera de Francia A-135, 15, 22660 Escarrilla, Huesca,Escarrilla,Huesca,campingescarra.com,974 48 71 28,"427,355,436",-0.3135073
0.0,0.000000026167978,"Camping D&apos;oremor",Ctra.De Cabanillas a Bustarviejo ,Km 0,700 Ctra M-631, 28721 Cabanillas de la Sierra, Madrid,Cabanillas de la Sierra,Madrid,doremor.com,918 43 90 34,"408,213,007"
0.0,0.000000026167978,Camping Cavall de Mar,Carrer de Cristòfor Colom, 46, 17300 Blanes, Girona,Blanes,Girona,cavalldemar.com,640 23 56 52,"416,624,682",27
0.0,0.000000026167978,Camping BARCELONA,N-II, Km. 650, 08304 Mataró, Barcelona,Mataró,Barcelona,campingbarcelona.com,937 90 47 20,"41,551",24
0.0,0.000000026167978,Camping Torremolinos,Calle Loma del Paraiso, 2, 29620 Torremolinos, Málaga,Torremolinos,Málaga,campingtorremolinos.com,952 38 26 02,36.646469,-4.4888154
0.0,0.000000026167978,Camping Sitges,Ctra 246a, 08870 Sitges, Barcelona,Sitges,Barcelona,campingsitges.com,938 94 10 80,"412,320,664",17,849
0.0,0.000000026167978,Camping Ber,Ber, 6, 15609 Pontedeume, C,Sambollo,C,campingber.es,981 43 85 00,"433,964,972",-8
0.0,0.000000026167978,Camping La Breña,Ctra. Palma del Río, km 26, 5, 14720, Córdoba,Almodóvar del Río,Córdoba,campingbreña.com,957 33 83 33,"378,399,359"
0.0,0.000000026167978,Camping Os Castros - Baroña,57, AC-550, 15979, C,Goltar,C,,660 71 13 44,"426,891,824",-90
0.0,0.000000026167978,Càmping Mas Patxet,"Carretera d&apos;Olot a Banyoles", 11, 17811 Santa Pau, Girona,Santa Pau,Girona,maspatxet.com,972 68 00 66,"421,504,538",25
0.0,0.000000026167978,Camping Olite,Ctra. NA 115 Km 2, 300, 31390 Olite,Olite,Olite,campingdeolite.com,948 74 10 14,"424,807,004",-16,778
0.0,0.000000026167978,Càmping Campalans,Ctra. de Sant Jaume de Frontanyà, Km. 1.5, 08619 Borredà, Barcelona,Borredá,Barcelona,campalans.net,938 23 91 63,"42,145,927",1
0.0,0.000000026167978,Camping Las Grullas,Camino Valdefuentes 4, 10185 Benquerencia, Cáceres,Benquerencia,Cáceres,campinglasgrullas.es,634 26 45 04,"39,296,264",-6,101
0.0,0.000000026167978,Camping Fuente del Botón,Camino Fuente del Botón, s/n, 42149 Navaleno, Soria,Navaleno,Soria,es-es.facebook.com,666 77 88 84,"418,363,712",-3
0.0,0.000000026167978,CAMPING MONFRAGUE BUNGALOWS,EX-208, km 9, 10680 Malpartida de Plasencia, Cáceres,Malpartida de Plasencia,Cáceres,campingmonfrague.es,927 45 92 33,"399,441,432",-60
0.0,0.000000026167978,Camping Los Gallardos,CN 640, Km 525, 04280 Los Gallardos, Almería,Los Gallardos,Almería,campinglosgallardos.com,950 52 83 24,"371,822,848",-19
0.0,0.000000026167978,Camping Villarcayo,Calle Burgos, 0, 09550 Villarcayo, Burgos,Villarcayo,Burgos,campingvillarcayo.com,947 13 02 81,42.9474307,-3.5695652
0.0,0.000000026167978,Camping las Menas,A-1178, Km. 18, 04890 Serón, Almería,Serón,Almería,campinglasmenasdeseron.com,950 09 10 65,37.2828402,-2.5092939
0.0,0.000000026167978,"Camping Cala D&apos;Oques",Via Augusta," 43890 L&apos;Hospitalet de l&apos;Infant", Tarragona,Hospitalet del Infante,Tarragona,caladoques.com,977 82 32 54,"40,977,735",0.903539,https://goo.gl/maps/5NEMczcZW3VqfJQy5
0.0,0.000000026167978,Camping Palacio De Garaña,Garaña de frias, s/n, 33500 Garaña, Asturias,Garaña,Asturias,,985 41 00 75,"43,453,443",-49
0.0,0.000000026167978,Camping Sabanell,Av.Villa de Madrid, 7, 9, 17300 Blanes, Girona,Blanes,Girona,campingsabanell.com,972 33 18 09,"416,638,872"
0.0,0.000000026167978,Camping Naturista Sierra Natura,Carretera Moixent - Navalón, km 11,5, 46811 Navalón, Valencia,Navalón,Valencia,sierranatura.com,962 25 30 26,"38,920,664"
0.0,0.000000026167978,Camping Bosque de Gordón S.L.,Calle Joaquín Blume, 4, 24600 La Pola de Gordón, León,La Pola de Gordón,León,bosquedegordon.com,987 57 55 28,"428,516,107",-56
0.0,0.000000026167978,Camping Marcos,Carretera N-II, Km 658.5, 08350 Arenys de Mar, Barcelona,Arenys de Mar,Barcelona,,937 92 12 38,"41,583,834",2
0.0,0.000000026167978,Camping Kiko Park Rural,Carretera Cv-4760, 0 S N, 46317 Villargordo del Cabriel,Contreras,Villargordo del Cabriel,kikoparkrural.com,962 13 90 82,"395,528,317",-1,474
0.0,0.000000026167978,Camping Palm - Mar,CAMPING PALM-MAR, Ctra. Alicante-Cartagena, KM 70, 03140, Alicante,Guardamar del Segura,Alicante,campingpalmmar.es,965 72 88 56,"380,728,468"
0.0,0.000000026167978,"Camping &amp; Glamping Muiñeira",Ctra. de A Lanzada a San Vicente do Mar, km 2, No 38, 36989 O Grove, PO,El Grove,PO,campingmuineira.es,608 98 74 50,"42,459,959"
0.0,0.000000026167978,Camping Eucaliptus,Carrer Eucaliptus, 0, 43870 Amposta, Tarragona,Amposta,Tarragona,campingeucaliptus.com,977 47 90 46,"406,567,864",0.7798506
0.0,0.000000026167978,Camping Vila de Sarria Restaurante,Carretera de Pintin km 1, Camino de Santiago km 113, 27600 Sarria, Lugo,Sarria,Lugo,campingviladesarria.com,982 53 54 67,"42,776,323",-7
0.0,0.000000026167978,Camping Calella de Palafrugell La Siesta - Bungalow Park,Avinguda del Mar, km. 2, 17210 Calella de Palafrugell, Girona,Calella de Palafrugell,Girona,campinglasiesta.com,972 61 51 16,"41,897,282",3
0.0,0.000000026167978,Camping Orea,Ctra. Orea a Griego, Km 6, 19311 Orea, Guadalajara,Orea,Guadalajara,campingorea.com,949 83 64 44,"405,094,924",-17
0.0,0.000000026167978,Camping Valldaro,Carrer del Camí Vell, 63," 17250 Conjunt de Castell d&apos;Aro", Girona,Castillo de Aro,Girona,valldaro.com,972 81 75 15,"418,141,016",30
0.0,0.000000026167978,Camping Alto Esla,Carretera León-Santander km. 105, 24911 Boca de Huérgano,Boca De Huergano,Boca de Huérgano,altoesla.eu,987 74 01 39,"429,723,657",-49,294,335
0.0,0.000000026167978,Camping El Canto la Gallina,Travesía dos de Mayo, 1, 28295 Valdemaqueda, Madrid,Valdemaqueda,Madrid,elcantolagallina.com,918 98 48 20,"405,095,081",-42
0.0,0.000000026167978,Camping Municipal,Av. Tarragona, 313, 25300 Tàrrega, Lleida,Tárrega,Lleida,,,"416,396,048",11
0.0,0.000000026167978,Camping el Balcón del Tietar,Paraje de la Bramajada, s/n, 05470 Pedro Bernardo, Ávila,Pedro Bernardo,Ávila,campingpedrobernardo.com,920 38 71 82,"40,245,631",-4
0.0,0.000000026167978,Camping Sierra de La Culebra,Carretera Riomanzanas, s/n, 49520 Figueruela de Arriba, Zamora,Figueruela de Arriba,Zamora,campingsierradelaculebra.com,630 66 13 29,"418,647,471",-64
0.0,0.000000026167978,Camping Os Ancares S L,Camping Mosteiro s/n Cervantes, 27665, Lugo,Queirogal,Lugo,,982 36 45 56,"42,833,712",-7,061
0.0,0.000000026167978,Camping Aragón G. | Valle de Hecho,a-176, Km 22, Comarca de la Jacetania, 22720 Hecho, Huesca,Hecho,Huesca,campinghecho.com,974 37 53 61,"427,322,852"
0.0,0.000000026167978,A Gaivota Camping,Calle Da Praia, 0 S/N, 27790 Barreiros, Lugo,Barreiros,Lugo,agaivotacamping.com,982 12 44 51,"43,562,263",-7
0.0,0.000000026167978,Camping Bahía de Santa Pola,Carretera Santa Pola - Elche, Km 11, 03130 Santa Pola, Alicante,Santa Pola,Alicante,campingbahia.com,965 41 10 12,"382,005,755",-0.5699643
0.0,0.000000026167978,Camping Asolaze,Carretera Francia, km. 39,5, 31417 Isaba, Navarra,Uztárroz/Uztarroze,Navarra,asolazecamping.com,948 89 32 34,"42,900,366"
0.0,0.000000026167978,Camping las Gaviotas Asturias,Paseo Marítimo, s/n, 33457, Asturias,El Puerto,Asturias,campinglasgaviotas.es,985 51 90 70,"435,724,508",-60
0.0,0.000000026167978,Camping Cal Paradis,BV-3002, km 9, Salo, 08269 Salo, Barcelona,Salo,Barcelona,campingcalparadis.com,938 69 56 52,"41,847,041"
0.0,0.000000026167978,Camping Stella Maris,Passeig Marítim, 84, 08380 Malgrat de Mar, Barcelona,Malgrat de Mar,Barcelona,campingstellamaris.es,937 65 48 83,"416,380,263",27
0.0,0.000000026167978,Camping los Bonales,Lugar Paraje los Bonales, 0 S/N, 19275 Cantalojas, Guadalajara,Cantalojas,Guadalajara,campinglosbonales.es,643 45 01 52,"412,331,841",-32
0.0,0.000000026167978,Camping Playa de Poniente,Playa Pte., s/n, 18613 Motril, Granada,Motril,Granada,campingplayadeponiente.com,958 82 03 03,36.718145,-3.546525
0.0,0.000000026167978,Camping Bon Sol,camino Real de Villajoyosa, 35, 03560 El Campello, Alicante,"Playa Muchavista, El Campello",Alicante,campingbonsol.es,626 21 98 80,"384,133,761",-0.4054812
0.0,0.000000026167978,Chiringuito Bar Camping San Marcos,Rúa, Vilamaior, 18, 15820 Santiago de Compostela, C,Santiago de Compostela,C,,,"428,915,299"
0.0,0.000000026167978,Camping Estrella de Mar,C-31, km 16.7, 08860 Castelldefels, Barcelona,Casteldefels,Barcelona,caesmar.com,936 33 07 84,"412,698,319",19
0.0,0.000000026167978,Camping Los Botijos.,Partida Benefetal, 22, 46820 Bicorp, Valencia,Bicorp,Valencia,,962 13 28 60,"390,856,847",-0.8657741
0.0,0.000000026167978,Camping la Paz,Acceso, Autovía del Mediterráneo, km 581, 30834 Murcia,Sangonera la Seca,Murcia,,968 89 39 29,"379,536,181",-1
0.0,0.000000026167978,Camping Paisaxe,Playa de O Terrón, 16, 36620 Vilanova de Arousa, PO,Villanueva de Arosa,PO,campingplayapaisaxe.com,986 55 46 56,"42,551,863",-8
0.0,0.000000026167978,Camping El Brezal,Carretera, s-n, 09513 El Vado, Burgos,El Vado,Burgos,campingelbrezal.com,947 19 03 76,"429,068,006",-35
0.0,0.000000026167978,Camping Montagut,Ctra. de Sadernes, Km. 2, 17855 Montagut, Girona,Montagut,Girona,campingmontagut.com,972 28 72 02,"42,245,454",2
0.0,0.000000026167978,"La Soleia d&apos;Oix",Mas Can Vilà, 17856 Оix, Girona,Montagut y Oix,Girona,lasoleiadoix.cat,972 29 45 61,"42,271,425",2,523
0.0,0.000000026167978,Camping Cantosal,crta de Coca a, Calle Santiuste, km2, 40480 Coca, Segovia,Coca,Segovia,,661 34 01 71,"412,091,632"
0.0,0.000000026167978,"Camping Fuente Del Gallo, S.L",Carril del Palillero S/N. Urb. Fuente del Gallo, 11149 Conil de la Frontera, Cádiz,Conil de la Frontera,Cádiz,campingfuentedelgallo.com,956 44 01 37,36.296545,-6.109874,https://goo.gl/maps/a2o3p28WYUktLtXd7
0.0,0.000000026167978,Camping Castello,Ctra. N-634, Km 532, 33746 El Franco, Asturias,Miudeira,Asturias,,,"435,491,654",-68
0.0,0.000000026167978,El Meson,Lugar O Meson Da Cabra, 6, 27305 Guitiriz, Lugo,Guitiriz,Lugo,campingelmeson.com,626 50 91 40,"431,782,809",-7
0.0,0.000000026167978,Camping A Grandella,Unnamed Road, 33746, 33746 El Franco, Asturias,El Franco,Asturias,campingagrandella.com,985 86 63 38,"435,562,472",-6
0.0,0.000000026167978,Camping La Buganvilla,29604 Marbella, Málaga,Marbella,Málaga,campingbuganvilla.es,952 83 11 97,36.5025047,-4.8041375,https://goo.gl/maps/aaGVdzVgETuZk1Qu7,https://goo.gl/maps/aaGVdzVgETuZk1Qu7
0.0,0.000000026167978,Camping Riba-roja,TV-7411, Km. 6," 43790 Riba-roja d&apos;Ebre", Tarragona,Ribarroja de Ebro,Tarragona,campingriba-roja.com,977 26 50 83,"41,247,168",0.419969
0.0,0.000000026167978,Camping Ciudad De Albarracín,Camino de Gea, 0, 44100 Albarracín, Teruel,Albarracín,Teruel,campingalbarracin.com,978 71 01 97,"404,116,001",-14
0.0,0.000000026167978,Camping Playa La Arena,Barrio la Arena, 16A, 39195 Arnuero, Cantabria,La Sorrozuela,Cantabria,campinghotelplayalaarena.com,942 67 93 59,"435,030,671",-35
0.0,0.000000026167978,Camping Cervin,Calle la Paul, 22, 22450 Campo, Huesca,Campo,Huesca,,974 00 00 00,"424,098,486",0.4047601
0.0,0.000000026167978,Camping Tropical,N-340, Km 315,4, 18690 Almuñécar, Granada,Almuñécar,Granada,campingtropical.es,644 22 75 36,36.7383328
0.0,0.000000026167978,Camping Rianxo,Praia de Tronco, 25, 15920 Rianxo, A Coruña,Rianjo,A Coruña,campingrianxo.com,609 84 70 00,"426,419,019",-88
0.0,0.000000026167978,Camping Valle De Tena,Km 513,46, Carretera Nacional 260, 22600 Sabiñánigo, Huesca,Sabiñánigo,Huesca,campingbungalowsvalledetena.es,974 48 03 02,"425,578,738"
0.0,0.000000026167978,Camping Octogesa,Carretera Fraga, s/n, Km 314, 50170 Mequinenza, Zaragoza,Mequinenza,Zaragoza,,610 09 80 21,"41,378,724"
0.0,0.000000026167978,Camping Park Pizarra,29569 Pizarra, Málaga,Rivera,Málaga,campingparkpizarra.com,649 68 60 87,36.7930411,-4.7302362,https://goo.gl/maps/AWgoyhsE6ahysih78,https://goo.gl/maps/AWgoyhsE6ahysih78
0.0,0.000000026167978,Camping La Aldea,Carretera de El Rocío, km. 25, 21750 El Rocío, Huelva,El Rocío,Huelva,campinglaaldea.com,959 44 26 77,37.1414226,-6.490577
0.0,0.000000026167978,Camping El Valle,Carretera M-610 Bustarviejo a Miraflores, Km. 15,500, 28720, Madrid,La Encinilla,Madrid,sierranorte.com,918 44 35 87,"408,432,478"
0.0,0.000000026167978,Camping Covarrubias,Av. de Victor Barbadillo, 0, 09346 Covarrubias, Burgos,Covarrubias,Burgos,proatur.com,616 93 05 00,"420,586,779",-35
0.0,0.000000026167978,Camping El Peñón,Crta. Algámitas-Pruna, Km. 3.5, Algámitas, Sevilla,Algámitas,Sevilla,algamitasaventura.es,955 85 53 00,37.018775,-5.1754966
0.0,0.000000026167978,Camping Los Molinos de Bareyo,CA-447, 953, 39170 Bareyo, Cantabria,Bareyo,Cantabria,campinglosmolinos.com,942 67 05 69,"434,641,941",-36
0.0,0.000000026167978,Camping cabañas Jimera De Libar,Carretera Cortés, 0 Km 1, 29392 Jimera de Líbar, Málaga,Jimera de Líbar,Málaga,rural-jimera.com,952 18 01 02,36.6555298,-5.2886932
0.0,0.000000026167978,Camping Picón Del Conde,Calle Burgos, 0 Km 0263 0, 09292 Monasterio de Rodilla, Burgos,Monasterio de Rodilla,Burgos,picondelconde.com,947 59 43 55,"424,595,553",-34
0.0,0.000000026167978,Camping Castell Mar,Parc Natural dels Aiguamolls de l’Empordà, s/n, 17486 Castelló d’Empuries, Girona,Ampuriabrava,Girona,camping-castellmar.com,972 45 08 22,"422,541,837",3
0.0,0.000000026167978,Camping Trillas Platja Tamarit,Carretera N-340, Km 1172, 43008 Tamarit, Tarragona,Tamarit,Tarragona,campingtrillas.com,977 65 02 49,"41,134,003",1
0.0,0.000000026167978,Camping Ciudad de León,Ctra/ N-601 km 2, salida, 24195 Golpejar de la Sobarriba, León,Golpejar de la Sobarriba,León,sites.google.com,987 26 90 86,"425,904,264",-55
0.0,0.000000026167978,Camping Alquezar,Ctra. Barbastro s/n., 22145 Alquézar, Huesca,Alquézar,Huesca,campingalquezar.com,974 31 83 00,"42,164,548",0.015277,https://goo.gl/maps/be4FpRHp42ooMo2n6
0.0,0.000000026167978,"La planta, terreny Acampada",GI-531, 17154 Sant Aniol de Finestres, Girona,San Esteban de Llémena,Girona,campaments.cat,,"42,067,411",26,095
0.0,0.000000026167978,Camping los Alcornocales,Carretera Cruz Blanca, 0, 11330 Jimena de la Frontera (Estación), Cádiz,Jimena de la Frontera,Cádiz,campinglosalcornocales.com,956 64 00 60,36.443003,-5.459846
0.0,0.000000026167978,Camping La Campiña,14549 La Guijarrosa, Córdoba,La Guijarrosa,Córdoba,campinglacampina.es,957 31 53 03,"376,225,718",-48,592,984
0.0,0.000000026167978,"Camping &amp; Bungalows Portuondo",Portuondo Auzoa, S/N, 48360 Mundaka, BI,Mundaca,BI,campingportuondo.com,946 87 77 01,43.3990136,-2.696253
0.0,0.000000026167978,Camping Cañones de Guara,Carretera A-1227, 0 Km22, 22141 Panzano, Huesca,Panzano,Huesca,,974 34 33 03,"422,143,874",-0.1740143
0.0,0.000000026167978,Camping Playa de Miño,Rúa Loios, 60, 15630 Miño, A Coruña,Miño,A Coruña,,,"433,553,763",-82
0.0,0.000000026167978,Camping Relax Nat,Carrer Pozo Alcón, 92, 17200 Palafrugell, Girona,"Ermedàs, Mont-ras",Girona,campingrelaxnat.com,972 30 00 91,"418,916,023",31
0.0,0.000000026167978,Camping Yolimar,Nacional 632A, Km 127, 33150 Cudillero, Asturias,Artedo,Asturias,,682 48 71 79,"435,527,471",-61
0.0,0.000000026167978,Camping Bellavista,Ctra. de Graus, 0, 22435 La Puebla de Castro, Huesca,La Puebla de Castro,Huesca,hotelcampingbellavista.com,974 54 55 11,"421,307,375",0.3099287
0.0,0.000000026167978,Camping Aitzeta,Laranga Auzoa, 35, 20830 Mutriku, Gipuzkoa,Motrico,Gipuzkoa,campingaitzeta.es,943 60 33 56,43.3051216,-2.3785591
0.0,0.000000026167978,Camping El Urogallo,Carretera Boñar Puerto de Tarna, 9, 24857 Cofiñal, León,Cofiñal,León,campingelurogallo.es,699 62 65 69,"430,289,504",-52
0.0,0.000000026167978,Camping Ber-Door,Lugar Playa Ber, s/n, 15619 Pontedeume, C,Sambollo,C,,981 43 85 48,"433,971,072",-82
0.0,0.000000026167978,CAMPING GENAL,Vega de la Curtida. Ctra. Algatocín-Jubrique, Km. 6, 29491 Algatocín, Málaga,Algatocín,Málaga,campingenal.com,687 98 26 29,36.567209,-5.246765
0.0,0.000000026167978,Camping Los Delfines,Carretera de Isla Plana, Playa El Mojón, s/n, 30860 Puerto de Mazarrón, Murcia,Puerto de Mazarrón,Murcia,camping-losdelfines.es,968 59 45 27,"375,780,632"
0.0,0.000000026167978,Camping Sol de Calpe Boreal,Av. de Bulgaria, 4, 03710 Calp, Alicante,Calpe,Alicante,campingsoldecalpe.com,965 83 26 18,"3,864,976",0.06844
0.0,0.000000026167978,Camping Puerta de Los Montes Obarenes,N-232, Km.487, 09244 Busto de Bureba, Burgos,Busto de Bureba,Burgos,bustodebureba.com,671 58 21 11,42.662342,-3.2656753
0.0,0.000000026167978,"Camping &amp; Bungalows Zumaia",Basusta-Bidea Bidea, 16, 20750 Zumaia, Gipuzkoa,Zumaya,Gipuzkoa,campingzumaia.com,943 86 04 75,"43,289,727",-2
0.0,0.000000026167978,Camping Pico Verde,CL-621 Km 26,7 24200, Valencia de Don Juan, León,Valencia de Don Juan,León,verial.es,987 75 05 25,"422,949,781",-55
0.0,0.000000026167978,"Camping La Borda D&apos;Arnaldet",Km 52 2, A-139, 0, 22467 Villanova, Huesca,Villanova,Huesca,arnaldet.com,682 44 10 56,"425,596,488"
0.0,0.000000026167978,Camping Mar y Campo,Calle, 0, 15165 Bergondo, C,Gandarío,C,,981 79 14 88,"433,416,222",-82
0.0,0.000000026167978,Camping Blanc,Carrer de Cristòfor Colom, 54, 17300 Blanes, Girona,Blanes,Girona,campingblanc.com,972 35 70 35,"416,593,262",27
0.0,0.000000026167978,Camping Cáceres,Carretera N-630, Km 549.5, 10005 Cáceres,Cáceres,Cáceres,campingcaceres.com,927 23 31 00,"394,891,985",-64,122
0.0,0.000000026167978,Camping NATURALEZA,Ctra. Salamanca SA-205 km.26, 37763 San Miguel de Valero, Salamanca,San Miguel de Valero,Salamanca,campingnaturaleza.es,923 41 55 77,"405,547",-5,914
0.0,0.000000026167978,Camping Calp-Mar,Calle Eslovenia, 3, 03710 Calp, Alicante,Calpe,Alicante,campingcalpemar.com,965 87 55 76,"386,451,259",0.0566688
0.0,0.000000026167978,Camping Jaizkibel,20280 Hondarribia, SS,Hondarribia,SS,campingjaizkibel.com,943 64 16 79,"433,663,597",-18,044,393
0.0,0.000000026167978,Camping Tossa,Ctra. Llagostera, Km 13, 17320 Tossa de Mar, Girona,"Urb. de Sant Eloi, Tossa de Mar",Girona,campingtossa.com,972 34 05 47,"417,290,177",2
0.0,0.000000026167978,Camping Hoces del Duratón,Carretera Sepúlveda, s/n, 40320 Cantalejo, Segovia,Cantalejo,Segovia,campinghocesdelduraton.com,,"412,570,399",-39
0.0,0.000000026167978,Camping Mar Azul Balerma,Carr. de Guardias Viejas, s/n, 04712 Balerma, Almería,Balerma,Almería,campingbalerma.com,950 93 76 37,"36,722,047",-2
0.0,0.000000026167978,"Camping Fonts de l&apos;Algar",Partida Algar, s/n," 03510 Callosa d&apos;en Sarrià", Alicante,Callosa de Ensarriá,Alicante,fontsdelalgar.com,608 74 25 71,"386,545,142",-0.0932415
0.0,0.000000026167978,CAMPING MAS NOU,Carrer Mas Nou, 7," 17487 Castelló d&apos;Empúries", Girona,Castellón de Ampurias,Girona,campingmasnou.com,972 45 41 75,"422,646,288",31
0.0,0.000000026167978,Camping Somo Parque Cantabria,Carretera Somo Suesa-Finca Mojante 21, 39150 Somo-Suesa, Cantabria,Somo,Cantabria,somoparque.com,942 51 03 09,43.4463502,-3.7271057,https://goo.gl/maps/d2ooYijrXY6DiCN68
0.0,0.000000026167978,Camping Joncar Mar,Carrer de Bernat Metge, 9, 10, 17480 Roses, Girona,Roses,Girona,campingjoncarmar.com,972 25 67 02,"422,664,466"
0.0,0.000000026167978,CAMPING PLAYA ARENILLAS,CAMPING PLAYA ARENILLAS, 39798 Islares, Cantabria,Islares,Cantabria,campingplayaarenillas.es,942 86 31 52,"434,037,755",-33,105
0.0,0.000000026167978,Camping El Racó del Mar,12, Carrer Letra D Santa Llucia, 12, 08800, Barcelona,Villanueva y Geltrú,Barcelona,,938 15 52 45,"412,095,471"
0.0,0.000000026167978,Camping Los Álamos,Paraje Fuen de la Reina, S N, 44431 La Virgen de la Vega, Teruel,La Virgen de la Vega,Teruel,campinglosalamos.com,978 80 11 67,"40,363,485",-0.693744
0.0,0.000000026167978,Camping Ruta De Finisterre,Lugar Playa Estorde, 216, 15270 Cee, C,Cee,C,rutafinisterre.com,981 74 63 02,"429,444,097",-92
0.0,0.000000026167978,Camping Urrobi,Ctra. Pamplona - Valcarlos, Km. 42, 31694 Aurizberri - Espinal, Navarra,Espinal,Navarra,campingurrobi.com,948 76 02 00,"42,973,043",-135
0.0,0.000000026167978,Camping Arganda,Ctra Campo Real, Km. 3,600, 28500 Arganda del Rey, Madrid,Arganda del Rey,Madrid,campingarganda.com,918 71 26 63,"40,320,101"
0.0,0.000000026167978,CAMPING - BUNGALOWS COMPLEJO TURISTICO LA MATA,Calle Garganta de Alardos, 39, 10480 Madrigal de la Vera, Cáceres,Madrigal de la Vera,Cáceres,campinglamata.com,927 56 52 38,"40,152,945",-5
0.0,0.000000026167978,Camping Playa las Dunas,Paseo Maritimo de la Playa la Puntilla, s/n, 11500, Cádiz,El Puerto de Sta María,Cádiz,lasdunascamping.com,956 87 22 10,36.5873053,-6.2415527
0.0,0.000000026167978,Cabañas Camping Sierra de Peñascosa,Carretera de Bogarra, Km 1, 02313 Peñascosa, Albacete,Peñascosa,Albacete,campingpenascosa.com,639 37 17 89,"386,734,693",-24
0.0,0.000000026167978,Camping Amfora,Carrer de Josep Tarradellas, 2, 17470 Sant Pere Pescador, Girona,San Pedro Pescador,Girona,campingamfora.com,972 52 05 40,"42,180,729",3
0.0,0.000000026167978,Camping Playa Aguadulce,Carretera A-491 Km. 6,5 ( Junto a, 11520 Rota, Cádiz,Rota,Cádiz,playaaguadulce.com,956 84 70 78,36.670983,-6.406061
0.0,0.000000026167978,Camping Valle de Añisclo,Crta. Añisclo, Km. 2, 22363 Puyarruego, Huesca,Puyarruego,Huesca,campings.net,974 50 50 96,"425,095,469",0.1251277
0.0,0.000000026167978,Camping Riaza,Carretera de la Estación, 40500 Riaza, Segovia,Riaza,Segovia,camping-riaza.com,921 55 05 80,"412,685,618",-34,963
0.0,0.000000026167978,Camping Almócita,04458 Almócita, Almería,Almócita,Almería,campingalmocita.es,622 56 65 67,36.995282,-2.785108,https://goo.gl/maps/DpneMcS1zGi2eJ6h6,https://goo.gl/maps/DpneMcS1zGi2eJ6h6
0.0,0.000000026167978,Camping Las Veredas,Avd. de las veredas s/n, 23150 Valdepeñas de Jaén, Jaén,Valdepeñas de Jaén,Jaén,campinglasveredas.webnode.es,953 12 92 56,37.593842,-3.810928,https://goo.gl/maps/dRfL9kRANJ7Jg69q8
0.0,0.000000026167978,Camping El Pradon,Carretera Argoños Somo, 37, 39195 Arnuero,Arnuero,Arnuero,,,"434,702,721",-35,608
0.0,0.000000026167978,Camping y Bungalow Siurana,Carretera de Cornudella a Siurana, Km 7, 43362 Siurana, T,Ciurana de Tarragona,T,campingsiurana.com,977 82 13 83,"412,614,434",0.9411495
0.0,0.000000026167978,Camping La Tordera,Camí de la Tordera s/n, 08380, Barcelona,Blanes,Barcelona,campinglatordera.com,937 61 27 78,"416,517,356",27,760
0.0,0.000000026167978,Camping Puigsagordi,Carretera de Banyeres, s/n, 08540 Centelles, Barcelona,Centellas,Barcelona,campingpuigsagordi.com,646 47 01 46,"41,806,925",2
0.0,0.000000026167978,Camping Madrid Monte Holiday,Finca El, Calleja del Tercio Nuevo, s/n, 28739, Madrid,Gargantilla del Lozoya,Madrid,campingmonteholiday.com,918 69 52 78,"409,496,524"
0.0,0.000000026167978,Camping El Tormes,Camino Dehesa, 1, 37800 Alba de Tormes, Salamanca,Alba de Tormes,Salamanca,campingeltormes.com,680 23 72 26,"408,196,138",-55
0.0,0.000000026167978,Camping Rural Loma Taivilla,29566, Málaga,Caicunes,Málaga,campingrural-lomataivilla.com,670 56 76 07,36.768557,-4.837503,https://goo.gl/maps/e5ibsBivwN52uZvy8,https://goo.gl/maps/e5ibsBivwN52uZvy8
0.0,0.000000026167978,Camping Palazuelo,Carretera Mayorga Astorga, Km. 30, 24234 Villamañán, León,Villamañán,León,grupopalazuelo.com,987 76 82 10,"423,136,111",-55
0.0,0.000000026167978,"Camping &amp; Bungalows Ligüerre de Cinca",Ctra A-138, Km. 28, 22393 Ligüerre de Cinca, Huesca,Ligüerre de Cinca,Huesca,liguerredecinca.com,974 50 08 00,"422,811,449",0.1967616
0.0,0.000000026167978,Camping Navarrete,Calle de Entrena, Km. 1, 5, 26370 Navarrete, La Rioja,Navarrete,La Rioja,campingnavarrete.com,941 44 01 69,"424,161,757"
0.0,0.000000026167978,Camping Montsant Park,C-242, Km 34.5, 43363 Ulldemolins, Tarragona,Ulldemolins,Tarragona,campingmontsantpark.com,609 48 51 00,"41,315,679",0.880916
0.0,0.000000026167978,Camping Victoria (Jaca),Avenida Nuestra Señora de la Victoria, 34 salida Camino Santiago, 22700 Jaca, Huesca,Jaca,Huesca,alcorceaventura.com,974 35 70 08,"425,640,251",-0.5698779
0.0,0.000000026167978,Camping Cadaqués,Av. de Salvador Dalí, 23, 17488 Cadaqués, Girona,Cadaqués,Girona,campingcadaques.com,972 25 81 26,"42,291,805",3
0.0,0.000000026167978,Camping Playa De La Joyel,CAMPING PLAYA JOYEL, PLAYA DE RIS S/N, 39180 Noja, Cantabria,Noja,Cantabria,playajoyel.com,942 63 00 81,43.4901743,-3.5392633
0.0,0.000000026167978,"Camping Punta Milà in l&apos;Escala",Carrer del Milà, s/n," 17130 L&apos;Escala", Girona,La Escala,Girona,campingpuntamila.com,638 65 27 12,"42,105,074",3
0.0,0.000000026167978,Camping El Angel Castril,Paraje el Angel, S/N, 18816 Castril, Granada,Castril,Granada,,678 07 59 04,37.7947083,-2.7867417
0.0,0.000000026167978,Camping Enmar,Avinguda Ntra. Sra. de la Mercè, s/n, 08397 Pineda de Mar, Barcelona,Pineda de Mar,Barcelona,campingenmar.com,937 67 17 30,"416,217,773",26
0.0,0.000000026167978,Camping La Manga Costa Cálida,Autovía Rm-12, 0 Km 15, 30380 San Javier,Abanilla,San Javier,,902 02 11 35,"378,499,655",-0.8477795,https://goo.gl/maps/ejHWYZhyoTsXyxbR8
0.0,0.000000026167978,Camping Del Pozo,Urbanización Fuente Romero, Camino Cordel de Talavera O de Hormigos, 31, 45919 Hormigos, Toledo,Hormigos,Toledo,,925 74 02 17,"401,037,753"
0.0,0.000000026167978,Eurocamping,Carrer Rabdells, s/n, 46780, Córdoba,"Urbanització Riuet dels Gorcs, Oliva",Córdoba,eurocamping-es.com,962 85 40 98,"389,061,924",-0.0671036
0.0,0.000000026167978,Camping Boltaña,N-260, km 442, 22340 Boltaña, Huesca,Boltaña,Huesca,campingboltana.com,974 50 23 47,"42,430,208",0.078838
0.0,0.000000026167978,"Camping L&apos;Aube",Camí del càmping, Urb. Riomar, 1, 43580 Deltebre, T,Deltebre,T,campinglaube.com,977 26 70 66,"407,208,222"
0.0,0.000000026167978,Camping Puente Nuevo - Córdoba,Ctr A-3075 Km. 8.5, 14300 Villaviciosa de Córdoba, Córdoba,Villaviciosa de Córdoba,Córdoba,campingpuentenuevo.com,957 36 07 27,"38,081,292",-4,927
0.0,0.000000026167978,Camping El Guijo,Camino del Río, s/n, 37774 Guijo de Ávila, Salamanca,Guijo de Ávila,Salamanca,guijodeavila.com,606 34 43 73,"40,539,903",-563
0.0,0.000000026167978,Camping Playa Bara,Carrer Astorga, 6, 43883 Roda de Berà, Tarragona,"El Mas Roig, Roda de Berà",Tarragona,parkplayabara.com,,"411,687,526",14
0.0,0.000000026167978,Camping oro verde,Unnamed Road, 04200 Tabernas, Almería,Cañada de Miralles,Almería,,,"370,811,616",-23,178
0.0,0.000000026167978,Camping El Brillante,Av. del Brillante, 50, 14016 Córdoba,Córdoba,Córdoba,campingelbrillante.com,957 40 38 36,37.8999102,-4.7872438,https://goo.gl/maps/F2fh6pHuRh5XTnyJ8
0.0,0.000000026167978,Camping 1ª O Muiño - Bungalow Park,Carretera Baiona - A Garda, Km 26, 36309 Mougás, Oia, PO,Pedra Rubia,PO,campingmuino.com,986 36 16 00,"42,063,934"
0.0,0.000000026167978,Camping 3 Estrellas,C-31, km 186,2, 08850, Barcelona,"Gavà Mar, Gavà",Barcelona,camping3estrellas.com,936 33 06 37,"41,272,316"
0.0,0.000000026167978,"COMPLEJO ROMA CAMPING BUNGALOWS &amp; AVENTURA",Carretera N-630, Km. 435, 10740 Aldeanueva del Camino, Cáceres,Aldeanueva del Camino,Cáceres,complejoroma.com,927 48 40 38,"402,683,481",-59
0.0,0.000000026167978,Camping Bungalows Las Cañadas,Carretera N-630, 0 Km 432, 10750 Baños de Montemayor, Cáceres,Baños de Montemayor,Cáceres,lascanadas.es,927 48 11 26,"40,285,276",-5
0.0,0.000000026167978,Camping Urrutea,Barrio Iriburia, 31414 Garde, Navarra,Garde,Navarra,campingurrutea.es,686 91 13 50,"427,876,188",-0.9221979,https://goo.gl/maps/f9by4brGYmkdN6ew7
0.0,0.000000026167978,Camping La Piscina,IIkm 674, carretera nacional,Santa Susanna,carretera nacional,,,"416,411,586",27,231,221
0.0,0.000000026167978,Camping Miño Dos Playas,Lugar Rio Bañobre, 84, 15608 Miño, C,Miño,C,campingdosplayas.com,981 78 25 95,"43,364,257",-820
0.0,0.000000026167978,Camping Borda Bisaltico,Km 2, Carretera Gabardito, 22720 Hecho, Huesca,Hecho,Huesca,bordabisaltico.com,974 34 89 40,"427,863,376",-0.7296428
0.0,0.000000026167978,Camping Los Villares,14029, Córdoba,Córdoba,Córdoba,campinglosvillares.es,857 89 09 02,37.9609181,-4.8123515,https://goo.gl/maps/FJRdq8vPT6JXiQbu9,https://goo.gl/maps/FJRdq8vPT6JXiQbu9
0.0,0.000000026167978,Camping La Bola,A-31, s/n, 03400 Las Virtudes, Villena, Alicante,Las Virtudes,Alicante,campingbola.com,659 59 68 67,"386,194,429"
0.0,0.000000026167978,"Creixell Camping &amp; Family Resort",Carretera N-340, Km. 1180, 43839 Creixell, T,Creixell,T,campingcreixell.com,977 80 06 20,"41,161,778",1
0.0,0.000000026167978,Camping Derby Loredo,Calle Bajada a la Playa, 19, 39160 Loredo, Cantabria,Loredo,Cantabria,campingloredo.com,942 50 41 06,"434,630,556",-37
0.0,0.000000026167978,Camping Relax-Ge,Carretera C-31, Salida 330, 17253 Mont-ras, Girona,Montrás,Girona,campingrelaxge.com,972 30 15 49,"41,892,118",3
0.0,0.000000026167978,Camping el Ortigal,Calle de los Montañeros, 19D, 28410 Manzanares el Real, Madrid,Manzanares el Real,Madrid,,,"407,416,764",-38
0.0,0.000000026167978,Camping Resort El Escorial,Carretera M-600, Km 3.5, 28280 El Escorial, Madrid,El Escorial,Madrid,campingelescorial.com,918 90 24 12,"40,623,293",-4
0.0,0.000000026167978,Camping Loma Taivilla,Carretera Alozaina, 354 S-N, A 2,5 Km encontrará cartel camping y a 200m el carril de acceso viene señalado, 29566 Casarabonela, Málaga,Casarabonela,Málaga,campingrural-lomataivilla.com,616 62 33 91
0.0,0.000000026167978,Camping San Pelayo,Lugar Baró, Carretera Potes Fuente Dé, Km. 5, 39587 Camaleño, Cantabria,Camaleño,Cantabria,campingsanpelayo.com,942 73 30 87,"431,542,101"
0.0,0.000000026167978,Camping Balcón de Orellana,Camino Piscifactoría, 06740 Orellana la Vieja, Badajoz,Orellana la Vieja,Badajoz,extremaduracampings.es,670 79 79 71,"389,947,439",-55,242
0.0,0.000000026167978,Camping Guara-Altaoja Casa Rural,Calle Mayor, 13, 22141 Yaso, Huesca,Yaso,Huesca,yaso.es,974 34 31 51,"42,201,898",-0.128767
0.0,0.000000026167978,Camping Laguna,Platja Can Turies, S/N, 17486 Empuriabrava, Girona,Ampuriabrava,Girona,campinglaguna.com,972 45 05 53,"42,234,728",3
0.0,0.000000026167978,Camping Playa Almayate Costa,N-340, Km. 267, 29749 Almayate, Málaga,Almayate,Málaga,campingalmayatecosta.com,952 55 62 89,"367,251,084",-41
0.0,0.000000026167978,Camping Iskibi,NA-4150, Km 18, 31754 Goizueta, Navarra,Goizueta,Navarra,iskibi.com,948 51 42 77,"431,967,412",-18
0.0,0.000000026167978,Camping Fort Bravo,Paraje del Unihay, s/n, 04200 Tabernas, Almería,Tabernas,Almería,campingfortbravo.es,902 07 08 14,37.0489562,-2.4231531
0.0,0.000000026167978,Camping los Carasoles,Carretera Casas de Requena, Km 3, 46811 Navalón, Valencia,Navalón,Valencia,loscarasoles.es,962 25 30 51,"38,912,476",-0.903118
0.0,0.000000026167978,Camping El Paraíso,URB, Calle los arenales, Camino Fuente Romero, 1, 45919 Hormigos, Toledo,Hormigos,Toledo,campingelparaiso.com,925 79 90 90
0.0,0.000000026167978,Camping Valencia,Carrer Riu Túria, 1, 46530 Puçol, Valencia,Puzol,Valencia,campingvalencia.com,961 46 58 06,"39,601,059",-0.270828
0.0,0.000000026167978,Camping Pantapino,Camino Camping, s/n, 16118 Olmedilla de Alarcón, Cuenca,Olmedilla de Alarcón,Cuenca,campingpantapino.eu,969 33 92 33,"396,093,582",-20
0.0,0.000000026167978,Camping Valle Enmedio,Alto del León, Av. de Peguerinos, Km. 4800, 05239 Peguerinos, Ávila,Peguerinos,Ávila,vallenmedio.com,918 98 31 76,"406,569,848"
0.0,0.000000026167978,"Camping Punta Marina, Isla,Cantabria",Barrio la Arena, 39195 Arnuero, Cantabria,Isla,Cantabria,campingpuntamarina.com,942 67 93 49,"434,982,973",-3,575
0.0,0.000000026167978,Camping Las Torres,CN-332 Mazarrón-Cartagena, Km. 26, 30860 Puerto de Mazarrón, Murcia,Puerto de Mazarrón,Murcia,campinglastorres.com,968 59 52 25,"3,758,978",-1
0.0,0.000000026167978,Camping Amaido Asturias,Finca Amaido BAJO, 33774 El Llano, Asturias,El Llano,Asturias,amaido.com,616 78 11 55,"434,134,989",-71,419
0.0,0.000000026167978,Camping Esponellà,Carr. de Banyoles, a, Km. 8, 17832 Figueres, Girona,Figueras,Girona,campingesponella.com,972 59 70 74,"421,828,577"
0.0,0.000000026167978,"Camping &quot;El Soto&quot;",Av. Alcalde Francisco Gómez, 2, 34100 Saldaña, Palencia,Saldaña,Palencia,,,"425,159,459",-47
0.0,0.000000026167978,"Camping L&apos;Amistat",Camí dels pins a sadolla, 43830 Torredembarra, T,Clará,T,,977 64 22 02,"411,556,165",14,245
0.0,0.000000026167978,Camping La Garrofa,N-340a, Km. 435, 04002 Almería,Almería,Almería,lagarrofa.com,950 23 57 70,"368,262,795",-25,164
0.0,0.000000026167978,Camping Playa de Ris - Noja,Calle el Rano, 2, Paseo Marítimo, s/n, 39180 Noja, Cantabria,Noja,Cantabria,negocio.site,942 63 04 15
0.0,0.000000026167978,Camping Sopelana,Avenida Atxabiribil Etorbidea, 30 CAMPING DE, 48600 Sopela, Bizkaia,Sopelana,Bizkaia,campingsopelana.com,946 76 19 81,43.3893063,-2.9841964
0.0,0.000000026167978,Camping Arenas,La Bandera, 1222, 39170 Ajo, Cantabria,Ajo,Cantabria,campingarenasdeajo.com,942 67 06 63,43.4921213,-3.6158992
0.0,0.000000026167978,Camping Punta del Hidalgo,Camino Los Corrales, 30, 38240 San Cristóbal de La Laguna, Santa Cruz de Tenerife,Punta del Hidalgo,Santa Cruz de Tenerife,turismodelalaguna.com,629 13 92 03,"285,709,838",-163
0.0,0.000000026167978,Camping Burbia,Calle Poza, 0, 24437 Burbia, León,Burbia,León,campingburbia.com,987 56 60 27,"427,926,803",-67
0.0,0.000000026167978,Camping Masía Can Patxet,Carretera Olot-Banyoles, 0 S N, 17811 Santa Pau, Girona,Santa Pau,Girona,maspatxet.com,972 68 01 36,"421,502,787",25
0.0,0.000000026167978,Camping Playa de La Franca Bungalows Asturias,Playa de la Franca, s/n, 33590 La Franca, Asturias,La Franca,Asturias,playadelafranca.com,985 41 22 22,"43,390,661",-4
0.0,0.000000026167978,Camping Cazorla Montillana,Carretera Hornos-Tranco km.78.5, Hornos de Segura, 23292 Hornos de Segura,Tranco,Hornos de Segura,clubrural.com,680 15 21 10,38.186791,-2.772781,https://goo.gl/maps/HtxSA4YUNE3wA2Eg6
0.0,0.000000026167978,Camping les Palmeres,Ctra. del Saler, Km 23, 46419 Les Palmeres-Sueca, Valencia,Mareny de Barraquetes,Valencia,campingpalmeras.com,961 77 08 61,"392,525",-0.2663889
0.0,0.000000026167978,Camping Veruela Moncayo,Carretera de Añon, s/n, 50580 Vera de Moncayo, Zaragoza,Vera de Moncayo,Zaragoza,campingveruelamoncayo.com,976 64 90 34,"418,191,469",-169
0.0,0.000000026167978,Càmping La Vall de Campmajor,Crta. Del Collell Km. 1,5, 17831 Sant Miquel de Campmajor, Girona,San Miguel de Campmajor,Girona,campinglavall.net,650 43 07 64,"42,136,772",2
0.0,0.000000026167978,Camping Acedo,Ctra. los Arcos, s/n, 31282 Acedo, Navarra,Acedo,Navarra,campingacedo.com,948 52 13 51,"426,609,047",-22
0.0,0.000000026167978,Camping Lake Caspe,Carretera Nacional 211, km 286.700, 50700 Caspe, Zaragoza,Caspe,Zaragoza,campinglakecaspe.com,976 63 44 57,"41,292,746",0.062265
0.0,0.000000026167978,Altamira Camping Park,Barrio las Quintas, 29, 39314 Queveda, Cantabria,Queveda,Cantabria,campingaltamira.es,942 84 01 81,"433,814,147",-40
0.0,0.000000026167978,Camping la Bolera,Lugar Vadillo Castril, 0 km 8, 23479 Vadillo Castril, Jaén,Vadillo Castril,Jaén,descubrepozoalcon.es,953 73 90 05,37.92201,-2.93018
0.0,0.000000026167978,CAMPING DE CERVERA DE BUITRAGO,Calle de la Iglesia, 0, 28193 Cervera de Buitrago, Madrid,Cervera de Buitrago,Madrid,sierranorte.com,918 68 61 36,"40,920,164",-3
0.0,0.000000026167978,"Camping L&apos;Aventura",Carretera Platja Daimús, s/n, 46710, Valencia,Daimuz,Valencia,campinglaventuraplaya.com,962 81 83 30,"389,735,268",-0.1510566
0.0,0.000000026167978,Camping Son Bou,Carretera de Llucalari, Km 3, 5, 07730 Alaior, Balearic Islands,Alayor,Balearic Islands,campingsonbou.com,971 37 27 27,"399,192,117"
0.0,0.000000026167978,Camping Laspaules,Carretera Nacional 260, km 369, 22471 Laspaúles, Huesca,Laspaúles,Huesca,laspaules.com,974 55 33 20,"42,471,329",0.599398
0.0,0.000000026167978,Camping Internacional Aranjuez,Ctra. antigua, N-IV, 28300 Aranjuez,Aranjuez,Aranjuez,campingaranjuez.com,918 91 13 95,"400,416,943",-35,990
0.0,0.000000026167978,Camping Coelius,Av. de la Mar, 46711 Miramar, Valencia,Miramar,Valencia,coelius.com,962 81 95 74,"38,953,722",-0.130001,https://goo.gl/maps/jcTT4xCo4DLiZ5Lx9
0.0,0.000000026167978,Urbasa Camping,Parque Natural de Urbasa. Crtra Estella - Olazagutia,km. 30, 31809 Olazti/Olazagutía, Navarra,Olazagutía,Navarra,campingurbasa.com,948 39 52 23,"428,515,982",-21
0.0,0.000000026167978,Camping Azul,Calle Camping Azul, 1, 46780 Oliva, Valencia,Oliva,Valencia,campingazul.com,962 85 41 06,"389,072,636",-0.0679286
0.0,0.000000026167978,Camping Can Martí,Rambla Pau Casals, 44, 17320 Tossa de Mar, Girona,Tossa de Mar,Girona,campingcanmarti.net,972 34 08 51,"417,288,688",29
0.0,0.000000026167978,Camping As Cancelas,15704, Rúa do Vintecinco de Xullo, 35, 15703 Santiago de Compostela, C,Santiago de Compostela,C,campingascancelas.com,981 58 02 66,"42,889,694"
0.0,0.000000026167978,Camping La Isla,Calle Travesía El Ribero, s/n, 09569 Villalázara, Burgos,Villalázara,Burgos,campinglaisla.com,646 42 18 04,43.0395437,-3.4882906
0.0,0.000000026167978,Camping Los Arribes,Calle Tejar, 29, 49230 Cibanal, Zamora,Cibanal,Zamora,campinglosarribes.es,658 91 25 75,"413,199,297",-63
0.0,0.000000026167978,Camping Picos de Europa,Carretera A-S 114, km. 16, 33556 Avín, Asturias,Avín,Asturias,picos-europa.com,985 84 40 70,"43,334,613",-4
0.0,0.000000026167978,Camping Suances,Calle de Ceballos, 79, 39340 Suances, Cantabria,Suances,Cantabria,campingsuances.com,942 81 02 80,"434,331,072",-40
0.0,0.000000026167978,Camping Cantabria,Calle real, 37, 39220 Polientes, Cantabria,Polientes,Cantabria,campingcantabria.es,942 77 61 38,"428,078,382",-39
0.0,0.000000026167978,Camping A Masía,Avenida de Ourense, 34, 32780 A Pobra de Trives, Ourense,Puebla de Trives,Ourense,campings.net,988 33 08 98,"423,451,141",-7
0.0,0.000000026167978,Camping Pico de la Miel,Calle del Camping, 28751 La Cabrera, Madrid,La Cabrera,Madrid,picodelamiel.com,918 68 80 82,"408,583,642",-36,163
0.0,0.000000026167978,Camping La Viorna,Carretera de, 39586 Santo Toribio, Cantabria,Santo Toribio,Cantabria,campinglaviorna.com,942 73 20 21,"431,544,304",-46,432
0.0,0.000000026167978,Camping Playa de Otur,Carretera Playa de Otur, s/n, 33792 Luarca, Asturias,Luarca,Asturias,campingotur.com,985 64 01 17,"43,545,157",-6
0.0,0.000000026167978,Camping Santa Elena,Carretera Deba, Km. 5, 20830 Mutriku, SS,Motrico,SS,camping-santaelena.com,943 60 39 82,43.3132536,-2.3943275
0.0,0.000000026167978,Camping Godoy,Carretera Extremadura 203 KM 60, 10460 Losar de la Vera,Losar de la Vera,Losar de la Vera,,927 57 08 38,"401,091,783",-55,800,794
0.0,0.000000026167978,Camping La Masia Tarragona,Playa de la Almadraba Ctra. N-340, Km. 1.121 Almadrava, 43890, T,"L&apos;Almadrava",T,camping-lamasia.com,977 82 31 02,"40,940,158",0.856746
0.0,0.000000026167978,camping Manso Coguleras,,Agullana,,mansocoguleras.com,,"357,146,136",-69,161,968,https://goo.gl/maps/K6gn7hhuupZNLxnX6
0.0,0.000000026167978,Camping Bastareny,Carretera Gisclareny, km 1, 08695 Bagà, Barcelona,Bagá,Barcelona,campingbastareny.com,938 24 44 20,"422,581,837",18
0.0,0.000000026167978,Camping Ter-costa brava.,Av. Costa Brava, 17258 Torroella de Montgrí, Girona,Torroella de Montgrí,Girona,campingter.com,639 40 85 90,"42,049,113",3,178
0.0,0.000000026167978,Camping El Calonge,Crta, SG-212, s/n, 40352 Aguilafuente, Segovia,Aguilafuente,Segovia,campingelcalonge.es,672 24 07 22,"412,783,689"
0.0,0.000000026167978,Camping Poboleda,Plaça de les Casetes, 33, 43376 Poboleda, Tarragona,Poboleda,Tarragona,campingpoboleda.net,977 82 71 97,"412,327,928",0.8434001
0.0,0.000000026167978,Camping Huerta Romero,Calle Rambla Hileros, 18740 Castell de Ferro, Granada,Castell de Ferro,Granada,campinghuertaromero.es,958 65 60 01,36.7208568,-3.3613466,https://goo.gl/maps/kD6SLbfpjqvMJwh9A
0.0,0.000000026167978,Camping La Fresneda,Partida Vall del Pi, 44596 La Fresneda, Teruel,La Fresneda,Teruel,campinglafresneda.com,978 85 40 85,"40,906,847",0.061883,https://goo.gl/maps/kD7Wj3F9NQuQYLXKA
0.0,0.000000026167978,Camping Orgiva,Ctra. A-348, Km. 18,900 (Cortijo del Cura, s/n), 18400 Órgiva, Granada,Órgiva,Granada,campingorgiva.com,958 78 43 07
0.0,0.000000026167978,Camping El Cantonet,Carretera Albanchez-Jimena km 3 Camino de Jimena a Albánchez, 23538 Albanchez de Mágina, Jaén,Albanchez de Mágina,Jaén,campingelcantonet.es,608 67 04 06,37.813691,-3.461296,https://goo.gl/maps/KHPg8ZbUhscbVeqL7
0.0,0.000000026167978,Camping Algarbe,Paraje El Algarbe, S/N, 44120 Terriente, Teruel,Terriente,Teruel,campingalgarbe.com,615 05 54 15,"40,307,087",-1
0.0,0.000000026167978,Camping las casitas de las arribes,Calle Fuente Santa, s/n, 37250 Aldeadávila de la Ribera, Salamanca,Aldeadávila de la Ribera,Salamanca,lascasitasdelasarribes.com,622 38 62 32,"41,212,772",-6
0.0,0.000000026167978,Camping Ainsa S.L.,Carretera Campo, 0 km 0001 , 5, 22336 Arro, Huesca,Arro,Huesca,campingainsa.com,974 50 03 61,"4,240,763"
0.0,0.000000026167978,Camping Totana,Carretera Nacional 340 Km 614, 30850 Totana, Murcia,"Urb. la Paloma, Totana",Murcia,campingtotana.es,968 42 48 64,"377,479,848",-15,172
0.0,0.000000026167978,Camping la Eliza,Calle Ávila, 13, 05490 Lanzahíta, Ávila,Lanzahíta,Ávila,campinglaeliza.com,619 69 07 35,"402,068,634",-49
0.0,0.000000026167978,Camping Campéole La Torre del Sol,KM 136, 43300 N-340, 1, 43892, T,La Torre del Sol,T,campeole.com,+33 9 70 82 50 00,"410,368,437"
0.0,0.000000026167978,Camping los Cameros,Crta. A La Ermita De La Virgen De Lomos De Orios (LR-448), km 3.4, 26125 Villoslada de Cameros, La Rioja,Villoslada de Cameros,La Rioja,camping-loscameros.com,941 74 70 21,"42,081,148",-2
0.0,0.000000026167978,Camping La Hierbabuena,Diseminado la Rambla, 279, 04610 Los Lobos, Almería,Los Lobos,Almería,,950 39 69 08,"373,005,759",-17
0.0,0.000000026167978,Camping As Cabazas,s/n, Carretera Covas - San Jorge, 15594, A Coruña,Ferrol,A Coruña,ascabazascamping.com,981 36 51 11,"43,539,278",-8
0.0,0.000000026167978,Camping Playa El Terrón,Lugar Playa Terrón, 19, 36629 Vilanova de Arousa, PO,Villanueva de Arosa,PO,campingelterron.com,986 55 43 94,"42,554,348",-8
0.0,0.000000026167978,"Camping Resort &amp; Bungalow Park Mas Patoxas",Ctra. C-31 Palafrugell - Pals, km. 339, 17256 Pals, Girona,Pals,Girona,campingmaspatoxas.com,972 63 69 28,"41,955,345",315
0.0,0.000000026167978,Camping la Plana,Passeig Marítim, 5, 43883 Roda de Berà, Tarragona,Roda de Bará,Tarragona,campinglaplana.com,977 80 03 04,"411,650,424",1
0.0,0.000000026167978,Camping Bon Repòs,Passeig Marítim, 17, 08398 Santa Susanna, Barcelona,Santa Susanna,Barcelona,campingbonrepos.com,937 67 84 75,"416,317,495",27
0.0,0.000000026167978,Camping Santa Clara,Partida Cap-Blanch, 11, 03590 Altea, Alicante,Altea,Alicante,campingsantaclaraaltea.com,965 84 23 56,"38,587,767",-0.0606706
0.0,0.000000026167978,Camping Piscis,Carretera de Guadalix M-625 a, Calle Navalafuente, Km 3, 28729 Madrid,Navalafuente,Madrid,campiscis.com,918 43 22 68,"408,083,926",-36
0.0,0.000000026167978,Camping Pantano de alloz,Calle San Pedro, 43, 31291, Navarra,Lerate,Navarra,aritzaleku.com,948 39 50 64,"427,201,928",-19
0.0,0.000000026167978,Camping Sierra Brava,Av Lago del Terrano, s/n, 41210 Guillena, Sevilla,El Ronquillo,Sevilla,andalucia.org,607 30 27 57,37.7075063,-6.1219758
0.0,0.000000026167978,Camping El Edén,Calle Tenerías, 11, 34120 Carrión de los Condes, Palencia,Carrión de los Condes,Palencia,facebook.com,628 01 59 43,"423,352,241",-46
0.0,0.000000026167978,Camping Municipal San Pedro De Gaillos,Camino Aldealcorvo, 1, 40389 San Pedro de Gaíllos, Segovia,San Pedro de Gaíllos,Segovia,,,"412,293,117",-38
0.0,0.000000026167978,Minicamping Oasis - Camping,03177, Calle Mar Adriatico, 1, 03177 San Fulgencio, Alicante,"Urbanización Buenavista, Guardamar del Segura",Alicante,,681 65 56 00,"381,198,379"
0.0,0.000000026167978,Càmping Els Roures,Av. El Mariner, 34, 36, 17864 Sant Pau de Segúries, Girona,San Pablo de Seguríes,Girona,elsroures.com,972 74 70 00,"42,262,796"
0.0,0.000000026167978,Camping la Rueda,Carretera C-31, Km. 146,2, 08880 Cubelles, Barcelona,Cubellas,Barcelona,la-rueda.com,938 95 02 07,"411,998,891"
0.0,0.000000026167978,Camping El Pino,Malaga Malaga ES, Calle Cervantes, 1, 29793 Torrox Costa,Torrox Costa,Torrox Costa,campingelpino.com,952 53 00 06,36.739193,-3.94967
0.0,0.000000026167978,Camping El Pinar,Av. Vila de Madrid, 39, 17300 Blanes, Girona,Blanes,Girona,campingelpinar.com,972 33 10 83,"416,538,043",27
0.0,0.000000026167978,Camping El Peñoso,La Eria, 33449 Antromero, Asturias,Antromero,Asturias,camping-el-penoso.webnode.es,985 88 01 64,"436,032,645",-57,731
0.0,0.000000026167978,Camping El Greco,45004 Toledo,Toledo,Toledo,campingelgreco.es,925 22 00 90,"398,649,192",-40,466,457,https://goo.gl/maps/Mm5KPNZjdPeHH1WPA
0.0,0.000000026167978,Camping La Serradora,Crta. CM2106 Km. 88.500, 19313 Peralejos de las Truchas, Guadalajara,Peralejos de las Truchas,Guadalajara,facebook.com,651 56 62 36,"40,594,001",-192,867
0.0,0.000000026167978,Camping Olimpia,Paseo Carretera, 3, 37427 Pedrosillo el Ralo, Salamanca,Pedrosillo el Ralo,Salamanca,campingolimpia.es,923 08 08 54,"410,581,991",-55
0.0,0.000000026167978,Camping Moreiras,Calle Reboredo, 26, 36989 O Grove, PO,El Grove,PO,campingmoreiras.com,986 73 16 91,"424,831,425",-88
0.0,0.000000026167978,Camping Oyambre Beach,Lugar Playa De Oyambre, s/n, 39528 El Tejo, Cantabria,El Tejo,Cantabria,,942 72 26 16,"433,893,627",-43
0.0,0.000000026167978,Camping Carlos V,Travesía los Derechos Humanos, 15, 39770 Laredo, Cantabria,Laredo,Cantabria,campings.net,942 60 55 93,43.407254,-3.431142
0.0,0.000000026167978,Camping Playa de Berria,Playa de Berria, s/n, 39740 Santoña, Cantabria,Dueso,Cantabria,campingsalon.com,942 66 22 48,43.4627005,-3.4595158
0.0,0.000000026167978,Càmping Port de la Selva,Carretera Port de la Selva a Cadaques, km 1, 17489 El Port de la Selva, Girona,Puerto de la Selva,Girona,campingportdelaselva.com,972 38 72 87,"423,266,237",32
0.0,0.000000026167978,Camping Miramar,Carretera Nacional 340, km 1.134, Tarragona Tarragona ES, 43892 Mont-roig del Camp,Montroig,Mont-roig del Camp,camping-miramar.com,977 81 12 03,"41,024,649",0.9593787
0.0,0.000000026167978,Camping Castillejo,Calle Castillejo, 30620 Fortuna, Murcia,Fortuna,Murcia,campingelcastillejo.com,619 00 32 58,"381,996,347",-11,214
0.0,0.000000026167978,Camping Yuste,Ctra. del Camping, 0, 10440 Aldeanueva de la Vera, Cáceres,Aldeanueva de la Vera,Cáceres,campingyuste.es,,"401,266,475",-56
0.0,0.000000026167978,Camping Francón,Carretera Playa Menduiña, Bajada Sartaxéns, 51, 36946 Cangas de Morrazo, Pontevedra, PO,Menduiña,PO,campingfrancon.com,986 32 82 92
0.0,0.000000026167978,Camping Arketa,Playa de Laida S/N, 48311 Ibarranguelua, BI,Ibarranguelua,BI,campingarketa.com,672 68 34 14,43.395189,-2.679341,https://goo.gl/maps/mzyQesFfwHnzvg4K7
0.0,0.000000026167978,Camping Santillana del Mar,carrtera comillas km 6.000, 39330 Santillana del Mar, Cantabria,Santillana del Mar,Cantabria,campingsantillana.com,942 81 82 50,"433,934,819",-41,124
0.0,0.000000026167978,Camping Guilleries,Passeig de la piscina, s/n, 17161 Osor, Girona, Girona,Osor,Girona,campingguilleries.com,654 85 01 43,"41,947,157"
0.0,0.000000026167978,Camping Nautico La Caleta,Cala del Cuervo S/N, 04116 Negras ( Las ),Las Negras,Negras ( Las ),campinglacaleta.com,950 52 52 37,36.872384,-2.006918,https://goo.gl/maps/N4rjsoAyXcBLLGQC6,https://goo.gl/maps/N4rjsoAyXcBLLGQC6
0.0,0.000000026167978,Camping Ametlla,Paratge Santes Creus, s/n," 43860 L&apos;Ametlla de Mar", Tarragona,La Ametlla de Mar,Tarragona,campingametlla.com,977 26 77 84,"4,086,475",0.77917
0.0,0.000000026167978,Camping La Escala,Carrer del Camí Ample, 21," 17130 L&apos;Escala", Girona,La Escala,Girona,campinglescala.com,972 77 00 84,"42,121,057",31
0.0,0.000000026167978,Camping Riezu - Navarra,Ctra. Muez, 31176 Villanueva de Yerri, Navarra,Villanueva de Yerri,Navarra,campingriezu.es,948 54 21 77,"42,755,164",-1,949
0.0,0.000000026167978,Camping la Fundición,SE-7101, 41370, Sevilla,Cazalla de la Sierra,Sevilla,campinglafundicion.es,955 28 00 27,"379,393,724",-56,849
0.0,0.000000026167978,Camping Tau - Meridiano Sur Activo,Calle Cala Higuera, S/N, 04118 San José, Almería,San José,Almería,campingtau.com,950 38 01 66,"367,676,708",-21
0.0,0.000000026167978,Camping en La Alpujarra - El Balcón de Pitres,Crta. Orgiva-Ugijar, Km 51, 18414 Pitres, Granada,Pitres,Granada,balcondepitres.com,958 76 61 11,36.931882,-3.3335454
0.0,0.000000026167978,Camping Pinar San José,Lugar Pago Zahora, 17, 11159 Zahora,Zahora,Zahora,campingpinarsanjose.com,956 43 70 30,36.200977,-6.034562,https://goo.gl/maps/NEYXgZxREoMzhAMj7
0.0,0.000000026167978,Camping Murkuzuria,Calle Sta. María, s/n, 31453 Esparza de Salazar, Navarra,Esparza de Salazar,Navarra,campingmurkuzuria.com,948 89 01 90,"42,854,877",-1
0.0,0.000000026167978,Camping El Folgoso,San Martín de Castañeda 13, 49361 Vigo, Zamora,Vigo,Zamora,campingelfolgoso.com,980 62 67 74,"421,289,753",-66,996
0.0,0.000000026167978,Camping Playa de Isla,Barrio Ampilla, 1, 39195 Isla, Cantabria,Isla,Cantabria,playadeisla.com,942 67 93 61,43.501881,-3.541635
0.0,0.000000026167978,Camping Prados Abiertos,Ctra N-502, 05410 Mombeltrán, Ávila,Mombeltrán,Ávila,rutasmotogredos.es,609 01 88 48,"402,610,816",-50,162
0.0,0.000000026167978,Camping Valle de Iruelas,Carretera N - 403, 0 km 95 Reserva Natural del Valle de Iruelas, 05110 Barraco, Ávila,La Rinconada,Ávila,campingvalledeiruelas.com,920 28 72 50,"404,078,104",-45
0.0,0.000000026167978,Camping Vidrà,Camí Santa Barbara, 17515 Vidrà, Girona,Vidrá,Girona,campingvidra.com,679 74 58 30,"421,235,041",23,171
0.0,0.000000026167978,Restaurante Las Palmeras,Carretera de la platja, s/n, 17470 Sant Pere Pescador, Girona, Girona,Bon Relax,Girona,campinglaspalmeras.com,972 52 05 06,"421,879,639"
0.0,0.000000026167978,Restaurante El Molino,Valcuevo, Camping isla De Puebla C, 49300 Puebla de Sanabria, Zamora,Puebla de Sanabria,Zamora,campingzamora.es,,"42,049,942",-66
0.0,0.000000026167978,Camping Rural la Molineta,Paraje el Batán s/n, 04470 Laujar de Andarax, Almería,Laujar de Andarax,Almería,campinglamolineta.es,950 51 43 15,36.999022,-2.886378,https://goo.gl/maps/NtiW7A7SaRhtg9D19
0.0,0.000000026167978,Camping Roquetas,Camino de los Parrales, 90, 04740 Roquetas de Mar, Almería,Roquetas de Mar,Almería,campingroquetas.com,950 34 90 85,"367,979,197",-25
0.0,0.000000026167978,Camping Pueblo Blanco,Ctra. Nacional 384, Km 69, 11690 Olvera, Cádiz,Olvera,Cádiz,campingpuebloblanco.com,956 13 00 33,36.9390984,-5.2170997
0.0,0.000000026167978,Camping Vilanova Y La Geltru,"Carr. de l&apos;Arboç", km 2, 5, 08800 Vilanova i la Geltrú, Barcelona,Villanueva y Geltrú,Barcelona,vilanovapark.com,938 93 34 02,"41,232,263"
0.0,0.000000026167978,Camping 3 Estrellas Costa Brava Castell Park,Ctra. Palamós-Palafrugell, Km 328, 17253 Vall-llobrega, Girona,Vall-llobrega,Girona,camping3estrellas.com,972 31 52 63,"41,881,831",3
0.0,0.000000026167978,Camping Costa Brava,Av. de la Unió, s/n, 17252 Sant Antoni de Calonge, Girona,San Antonio de Calonge,Girona,campingcostabrava.net,972 65 02 22,"41,845,752",30
0.0,0.000000026167978,Camping las Nogueras de Nerpio,S-N, Paraje Cortijo Mirabuenos, 0, 02530 Nerpio, Albacete,Nerpio,Albacete,campingdenerpio.com,967 57 51 15,"38,140,544"
0.0,0.000000026167978,Camping de Besalú,Camí de St. Ferriol, Km 2.5, 17850 Garrotxa, Girona,Besalú,Girona,campingdebesalu.com,972 59 18 01,"421,959,017",2
0.0,0.000000026167978,"Camping Riells de l&apos;Escala",Carrer Camp Rabassa, s/n," 17130 L&apos;Escala", Girona,La Escala,Girona,campingriells.com,972 77 00 27,"421,082,113",31
0.0,0.000000026167978,Camping El Abogao,Carretera de Campillos, Km 5, 29400 Ronda, Málaga,Ronda,Málaga,ronda.net,600 54 43 17,36.786554,-5.112537
0.0,0.000000026167978,Camping Clara,Passeig de Miramar, 276, 43830 Torredembarra, Tarragona,Torredembarra,Tarragona,campingclara.es,977 64 34 80,"411,494,444",14
0.0,0.000000026167978,Camping Málaga Monte Parc,Lugar Arroyo Hondo, 29130 Alhaurín de la Torre, Málaga,Alhaurín de la Torre,Málaga,malagamonteparc.com,951 29 60 28,36.6518292,-4.6106315,https://goo.gl/maps/os8PCVDNPmmwq1nU6
0.0,0.000000026167978,Camping Ruviejo,Av. Polideportivo, 11, 24393 Santa Marina del Rey, León,Santa Marina del Rey,León,campingruviejo.com,987 37 72 56,"42,511,731",-5
0.0,0.000000026167978,Camping El ortigal S C P,Calle de los Montañeros, 19D, 28410 Manzanares el Real, Madrid,Manzanares el Real,Madrid,,918 53 00 52,"4,074,172",-38
0.0,0.000000026167978,Càmping Alberg Tivissa,Carrer Foig, 3, 43746 Tivissa, Tarragona,Tivissa,Tarragona,albergcampingtivissa.cat,652 48 08 05,"41,041,831",0.738535
0.0,0.000000026167978,Camping Fuente De La Teja,km. 223, Ctra. Madrid, 42005 Soria,Soria,Soria,fuentedelateja.com,975 22 29 67,"41,745,843",-2,484
0.0,0.000000026167978,Camping Playa Canelas,crta la lanzada, Portonovo, Camiño de Canelas, 14A, 36970 Sanxenxo, PO,Sanjenjo,PO,campingplayacanelas.com,986 69 10 25
0.0,0.000000026167978,Camping Llanos de Arance,Carretera del Tranco, A-319 Km. 53,800 23478, Jaén,Coto-Ríos,Jaén,llanosdearance.com,953 71 31 39,38.0529188,-2.8404073
0.0,0.000000026167978,Camping Vilanova Park,08800 Vilanova i la Geltrú, Barcelona,Villanueva y Geltrú,Barcelona,vilanovapark.com,,"412,318,382",16,907,665
0.0,0.000000026167978,Camping Oriñón,Barrio Oriñón, s/n, 39798 Castro Urdiales, Cantabria,Castro Urdiales,Cantabria,campingorinon.com,942 87 86 30,43.3985932,-3.3260357
0.0,0.000000026167978,Camping VerdeVeras,Pago San Anton, 6, 04620, Almería,Vera,Almería,verdeveras.es,634 31 79 10,37.2552958,-1.8662214
0.0,0.000000026167978,Camping Mirador Playa,Paseo Manuel Noriega, 27, 39520 Comillas, Cantabria,Comillas,Cantabria,campingcomillas.com,942 72 00 74,"433,881,417",-42
0.0,0.000000026167978,Camping El Palmar,Camino del Camping, S/N, 11159 El Palmar, Vejer de la Fra., Cádiz,El Palmar de Vejer,Cádiz,campingelpalmar.es,956 23 21 61,36.234001
0.0,0.000000026167978,Camping Laredo,Avda Regatón, 2, 39770 Laredo, Cantabria,Laredo,Cantabria,campinglaredo.com,942 60 50 35,43.4143008,-3.4478132
0.0,0.000000026167978,Camping La Balma,Ctra C-25, Salida 202, 17405 Espinelves, Girona,Espinelvas,Girona,campinglabalma.com,938 84 91 02,"4,186,071",2
0.0,0.000000026167978,Camping Berceo,Término el Molino, s/n, 26327 Berceo, La Rioja,Berceo,La Rioja,,941 37 32 27,"423,339,287",-28
0.0,0.000000026167978,Camping Estación Sierra Magina,Carretera Ja - 5200, 0 S/N, 23550 Cabra del Santo Cristo, Jaén,Albanchez de Mágina,Jaén,,953 96 21 21,37.703349,-3.2872875
0.0,0.000000026167978,Camping Fuentes Blancas,Calle Cartuja de Miraflores, 0, 09001 Burgos,Burgos,Burgos,campingburgos.com,947 48 60 16,"423,415,797",-36,576
0.0,0.000000026167978,Camping los Linares,Calle Nacimiento, S/N, 11679 Benamahoma, Cádiz,Benamahoma,Cádiz,,956 71 62 75,36.7702993,-5.4582933
0.0,0.000000026167978,Camping de Trasobares,Avenida Constitución, 1, 50268 Trasobares, Zaragoza,Trasobares,Zaragoza,camping.trasobares.es,612 53 46 68,"41,642,164",-1
0.0,0.000000026167978,Camping los Molinos Noja,Calle de la Ría, s/n, 39180 Noja, Cantabria,Noja,Cantabria,campinglosmolinos.com,942 63 04 26,43.4857014,-3.5391686
0.0,0.000000026167978,Camping Os Invernadeiros,Urb. Ctra. Celanova, 0, 32660 Allariz, Province of Ourense,Allariz,Province of Ourense,allariz.gal,988 44 20 06,"421,847,138",-78
0.0,0.000000026167978,Camping Aguiar,Aldea Moruxo, 129, 15165 Bergondo, A Coruña,Gandarío,A Coruña,campingaguiar.webs.com,981 79 14 77,"433,414,531",-82
0.0,0.000000026167978,"Camping, Bungalows y Hotel Viu en Ordesa",Carretera Nacional, 260 KM. 484 Víu, 22378, Huesca,Viu,Huesca,campingviu.com,974 48 63 01,"426,159,918",-0.1539812
0.0,0.000000026167978,Camping Internacional de Calonge,Av. Andorra, 9, 17251 Calonge, Girona,Calonge,Girona,intercalonge.com,972 65 12 33,"41,834,215",30
0.0,0.000000026167978,Camping Castillo de Loarre - Huesca,Carretera del castillo, s/n, 22809 Loarre, Huesca,Loarre,Huesca,campingloarre.com,609 66 10 58,"423,197,118",-0.6184407
0.0,0.000000026167978,Camping Riaño,Ronda Santander S/N, 24900 Riaño, León,Riaño,León,campingderiano.com,609 41 42 75,"42,976,788",-4,998
0.0,0.000000026167978,Camping La Sierrecilla,Av. Clara Campoamor, S/N, 29531 Humilladero, Málaga,Humilladero,Málaga,lasierrecilla.com,951 19 90 90,"37,108,364",-4
0.0,0.000000026167978,Camping El Naranjal,Calle Cannes, s/n, 03730 Xàbia, Alicante,Jávea,Alicante,campingelnaranjal.com,965 79 29 89,"387,706,357",0.1821968
0.0,0.000000026167978,Camping Costajan,Carretera N-I, km.162. Acceso principal por A-1 entrada norte pk 164/165, A-1, 09400 Aranda de Duero,Aranda de Duero,Aranda de Duero,campingcostajan.com,947 50 20 70,"417,020,491",-36
0.0,0.000000026167978,Camping Bungalow Valle del Jerte,Cáceres, Carretera Nacional, KM 110, 10612 Jerte, Cáceres,Jerte,Cáceres,campingbungalowvalledeljerte.com,927 47 01 27,"402,077,069"
0.0,0.000000026167978,CAMPING LATAS,Calle Arna, 104, 39140 Somo, Cantabria,Somo,Cantabria,camping-latas.business.site,942 51 02 49,43.4555597,-3.7276171
0.0,0.000000026167978,"Camping &amp; Bungalow Salatà",Carrer del Port de Reig, 44, 17480 Roses, Girona,Roses,Girona,campingsalata.com,972 25 60 86,"422,665,608",31
0.0,0.000000026167978,Camping la Corona,Avinguda del Mas de Clariana, s/n, 43850 Cambrils, Tarragona,Cambrils,Tarragona,campinglacorona.com,977 35 10 30,"410,758,333",1
0.0,0.000000026167978,Camping Oliden,Carretera de Rentería a Irún, km 5.5, 20180 Oiartzun, Guipúzcoa, Gipuzkoa,Arragua,Gipuzkoa,campingoliden.com,943 49 07 28,43.315409
0.0,0.000000026167978,Càmping Vall de Ribes,Ctra de Pardines, Km 0.5, 17534 Ribes de Freser, Girona,Ribas de Freser,Girona,campingvallderibes.com,972 72 88 20,"42,310,953",2
0.0,0.000000026167978,Camping Vell Empordá,Carrer Onze de Setembre, 11, 17780 Garriguella, Girona,Garriguella,Girona,vellemporda.com,972 53 02 00,"42,338,795",306
0.0,0.000000026167978,Camping Castell Montgrí,"Ctra.Torroella a l&apos;Estartit ",Km 4.7, 17258 Torroella de Montgrí, Girona,Torroella de Montgrí,Girona,camping-castellmontgri.com,972 75 16 30,"42,050,995",3
0.0,0.000000026167978,"Camping La Sirena, L&apos; Estartit",C/ La Platera S/N, C/ La Platera," 17258 L&apos;Estartit", Girona,Estartit,Girona,camping-lasirena.com,972 75 15 42,"420,482,591",3
0.0,0.000000026167978,Camping Entreplayas,Av. Ctra. de Toro, 13, 33500 Llanes, Asturias,Llanes,Asturias,facebook.com,985 40 08 88,"434,183,851",-47
0.0,0.000000026167978,Camping Perbes,Crta. De Miño a Pontedeume, Km. 4, 15619 Perbes, C,Perbes,C,campingperbes.com,981 78 31 04,"433,690,779",-82
0.0,0.000000026167978,Camping La Herradura,Paseo Andrés Segovia, 32, 18697 Almuñécar, Granada,La Herradura,Granada,,958 64 00 56,36.7357524,-3.7440982
0.0,0.000000026167978,Camping San José del Valle,Ctra. San José del Valle - Arcos, Km. 11,5, 11580 San José del Valle, Cádiz,San José del Valle,Cádiz,campingsanjosedelvalle.com,856 03 00 60,36.6617218
0.0,0.000000026167978,Camping Zingira,Carretera Gi-2637, 0 Km 10, 20809 Aia, SS,"Manterola Saletxe, Aia",SS,zingiracamping.com,682 26 12 87,43.2555108,-2.130889
0.0,0.000000026167978,Camping Kanguro,N-II, 5, 08395 Sant Pol de Mar, Barcelona,San Pol de Mar,Barcelona,campingkanguro.com,937 60 02 05,"415,933,324",26
0.0,0.000000026167978,Camping Sant Miquel,Urbanització Sant Miquel, s/n, 17496 Colera, Girona,Colera,Girona,campingsantmiquel.com,972 38 90 18,"424,029,121",31
0.0,0.000000026167978,Club Camping Caravaning Aqua Alba,Plaça Sector Aqualba, 08474, Barcelona,Riells,Barcelona,campingaquaalba.com,938 47 02 64,"41,718,202",25,374
0.0,0.000000026167978,Camping A Fonsagrada,LU-740, Km 0, 800, 27100 A Fonsagrada, Lugo,Fonsagrada,Lugo,campingfonsagrada.es,982 34 04 49,"431,270,546"
0.0,0.000000026167978,Camping Igara,De Igara Bidea, 195, 20018 Donostia, Gipuzkoa,San Sebastián,Gipuzkoa,campingigara.com,943 35 88 12,43.2969181,-2.0377432
0.0,0.000000026167978,La Fradera,Carretera GI-511," Km. 6&apos;7", 17732, Sant Llorenç de la Muga, Girona,San Lorenzo de la Muga,Girona,campinglafradera.com,972 54 20 54,"423,141,949"
0.0,0.000000026167978,Nuevo Camping la Herradura,Paseo Andrés Segovia, 67, 18697 La Herradura, Granada,La Herradura,Granada,nuevocamping.es,958 64 06 34,36.739715,-3.7533588
0.0,0.000000026167978,Camping Internacional Palamós,Camí de Cap de Planes, s/n, 17230 Palamós, Girona,Palamós,Girona,internacionalpalamos.com,972 31 47 36,"418,577,195",31
0.0,0.000000026167978,Camping El Cortijo,Carretera Ronda Campillos, Km. 5, 29400 Ronda, Málaga,Arriate,Málaga,campingsalon.com,952 87 07 46,36.7827113,-5.1169673
0.0,0.000000026167978,Camping de La Vall de Bianya,Ctra., Km. 93, 6, N-260, 17813, Girona,San Martín del Clot,Girona,campingbianya.com,972 29 00 57
0.0,0.000000026167978,Camping El Pasqualet,Carretera BV-1243 a Sant Sebastià de Montmajor km 0,3, 08140 Caldes de Montbui, Barcelona,Caldas de Montbui,Barcelona,elpasqualet.com,938 65 46 95,"41,644,323",2
0.0,0.000000026167978,Camping El Pla de Mar,Avda. de la Pomareda, s/n, 08380 Malgrat de Mar, Barcelona,Malgrat de Mar,Barcelona,elplademar.com,937 61 10 03,"41,647,286",2
0.0,0.000000026167978,Camping Cabo de Ajo,Av. del Faro, 2024, 39170 Bareyo, Cantabria,Bareyo,Cantabria,campingcabodeajo.com,942 62 14 00,43.505048,-3.597121
0.0,0.000000026167978,Camping Baix Camp,Carrer del Cavet de Barenys, 43850 Cambrils, Tarragona,Cambrils,Tarragona,ubcambrils.com,977 36 12 42,"410,731,346",10,831
0.0,0.000000026167978,Camping Santes Creus,Carretera Tp-2002, 0 S N, 43815 Aiguamúrcia, T,La Plana del Molí,T,campingsantescreus.com,610 42 33 98,"413,415,362",13
0.0,0.000000026167978,Camping Platja Vilanova,Km 48, Avinguda Barcelona, 08800 Vilanova i la Geltrú, Barcelona, Barcelona,Villanueva y Geltrú,Barcelona,campingplatjavilanova.com,938 95 07 67,"41,207,339"
0.0,0.000000026167978,Camping El Temple,Ronda San Isidro, 2, 22281 El Temple, Huesca,El Temple,Huesca,campingsalon.com,620 24 96 03,"419,775,645",-0.7524485
0.0,0.000000026167978,Camping El Delfín Verde - Costa Brava Resort,Carrer del Rossinyol, 1, 17257 El Mas Pinell, Girona,El Mas Pinell,Girona,eldelfinverde.com,972 75 84 54,"420,123,793",31
0.0,0.000000026167978,Camping Baltar Sanxenxo,Baltar s/n, 36970 Portonovo, PO,Portonovo,PO,campingbaltar.com,986 69 18 88,"42,401,368",-8,824
0.0,0.000000026167978,Camping Platja Cambrils,Camping Platja (Don Camilo)," Carrer de l&apos;Oleastrum", Cambrils, T,Cambrils,T,playacambrils.com,,"410,668,681",10
0.0,0.000000026167978,Camping Cistierna,24800, Calle Polideportivo, 42, 24800 Cistierna, León,Cistierna,León,campingcistierna.es,653 89 49 54,"42,798,959"
0.0,0.000000026167978,Camping Pineta,Carretera Parador Nacional, Km 8, 22350 Bielsa, Huesca,Bielsa,Huesca,campingpineta.com,974 50 10 89,"426,514,949",0.1405747
0.0,0.000000026167978,Camping Sierra Espuña,Calle Juan Bautista, sn, 30848 El Berro, Murcia,El Berro,Murcia,campingsierraespuna.com,968 66 80 38,"37,888,091",-1
0.0,0.000000026167978,Camping Els Solans,C-38 Km13, 17867 Camprodon, Girona,Camprodón,Girona,campingelssolans.com,972 13 00 99,"42,324,793",2,390
0.0,0.000000026167978,Camping Valdoviño,Estrada da Praia, 41, 15552 Valdoviño, A Coruña,Valdoviño,A Coruña,campingvaldovino.com,981 48 70 76,"436,123,282",-81
0.0,0.000000026167978,Camping Naranjo de Bulnes,Ctra. Arenas-Panes, km. 32,5, 33554 Arenas de Cabrales, Asturias, Asturias,Las Arenas,Asturias,campingnaranjodebulnes.com,985 84 65 78
0.0,0.000000026167978,Camping Navahermosa la milagra,Camino de Hontanar, s/n, 45150 Navahermosa, Toledo,Navahermosa,Toledo,,686 29 70 84,"396,212,436",-44
0.0,0.000000026167978,Illa Mateua Camping Resort,Avinguda de Montgó, 260," 17130 L&apos;Escala", Girona,La Escala,Girona,campingillamateua.com,972 77 02 00,"42,110,456",31
0.0,0.000000026167978,Yelloh! Village Camping Mas Sant Josep,"Ctra. Santa Cristina d&apos;Aro", 2, 17246 Km, Girona,Castillo de Aro,Girona,campingmassantjosep.com,972 83 51 08,"4,181,161",3
0.0,0.000000026167978,Camping Sierra De Las Nieves,s/n, Camino Forestal, 29410, Málaga,Yunquera,Málaga,campingsierradelasnieves.com,952 48 22 75,36.7358076,-4.9274248
0.0,0.000000026167978,Camping Martisol,Calle Moruxo, 123, 15165 Bergondo, C,Bergondo,C,,981 79 15 27,"433,407,783",-82
0.0,0.000000026167978,Camping Municipal Conejeras,Carretera Ronda a San Pedro de Alcántara, Km 13.6, 29451 Parauta, Málaga,Parauta,Málaga,parauta.es,619 18 00 12,36.6639848,-5.0911277
0.0,0.000000026167978,Camping Las Cuevas,Calle el Rio, 10, 24846 Valdepiélago, León,Montuerto,León,,610 39 45 15,"42,884,197",-53
0.0,0.000000026167978,Camping la Sureda S.L.,Carretera GI-550, Km 4,7, 17401 Arbúcies, Girona,Joanet,Girona,campinglasureda.com,972 16 26 65,"418,462,054"
0.0,0.000000026167978,Camping Saviñan Park,Calle Aurora, 50299 Sabiñán, Zaragoza,Sabiñán,Zaragoza,campingsavinan.com,976 82 54 23,"414,469,061",-15,574
0.0,0.000000026167978,Camping Playa La Bota,Ctra. Huelva - Punta Umbría, km 11, 21100 Punta Umbría, Huelva,Punta Umbría,Huelva,campingplayalabota.es,959 31 45 37,37.2067541,-7.024096
0.0,0.000000026167978,Camping la Cabañuela,Carril Cortijo del Cura, S/N, 18812 Freila, Granada,Freila,Granada,,958 06 31 08,37.5587705,-2.9114077
0.0,0.000000026167978,Camping Cubillas,Autovía de Castilla, 102, 47290 Cubillas de Santa Marta, Valladolid,Cubillas de Santa Marta,Valladolid,campingcubillas.com,983 58 50 02,"41,804,972",-4
0.0,0.000000026167978,Camping Despeñaperros,Calle Infanta Elena, 0 S N, 23213 Santa Elena, Jaén,Santa Elena,Jaén,campingdespenaperros.com,953 66 41 92,38.3437564,-3.5361193
0.0,0.000000026167978,Camping Águilas,Urbanizacion Los Géranéos nº60, 30880 Águilas,Águilas,Águilas,,968 41 92 05,"374,259",-1,550,327
0.0,0.000000026167978,Camping Prades Park,Cra t- km 6850, T-701, 43364 Prades, T,Prades,T,campingprades.com,977 86 82 70,"413,123,634",0.9798333
0.0,0.000000026167978,Camping Cantolagua,Paseo Cantolagua, 1, 31400 Sangüesa, Navarra,Sangüesa,Navarra,campingsanguesa.es,948 43 04 49,"425,696,073",-12
0.0,0.000000026167978,Camping Río Vero,Carretera Puente de Colungo s/n, A-2205, 22145 Alquézar, Huesca,Alquézar,Huesca,campingriovero.com,974 31 83 50,"421,519,326",0.0289428
0.0,0.000000026167978,Mini-Camping Ardalejo,Calle 3 Ue-26., 29120 Alhaurín el Grande, Málaga,"Urb. UR-10, Alhaurín el Grande",Málaga,minicamping-ardalejo.com,+31 6 30214053,36.6498343,-4.653504,https://goo.gl/maps/SyaxE8tMxWDK6cfT9
0.0,0.000000026167978,"Camping Pepe, Oliva, Valencia",46780 Oliva, Valencia,"Urbanització Bassetes, Oliva",Valencia,campingpepe.com,962 85 75 19,"388,954,117",-0.0508117,https://goo.gl/maps/SyCqiaZ5wpJo8eGDA,https://goo.gl/maps/SyCqiaZ5wpJo8eGDA
0.0,0.000000026167978,Camping El Maset,Carretera Platja de Sa Riera, S/N, 17255 Begur, Girona,Begur,Girona,campingelmaset.com,972 62 30 23,"419,686",3
0.0,0.000000026167978,Camping La Marina,"Av. de l&apos;Alegría", 03194 la Marina, Alicante,"Urbanización La Marina, Elche",Alicante,lamarinaresort.com,965 41 92 00,"38,130,546",-0.6499723,https://goo.gl/maps/t3G4Ue7M7zNUzb9a8
0.0,0.000000026167978,Camping Ariztigain Navarra,Añerdi Auzoa, 11, 31791 Sunbilla, Navarra,Sumbilla,Navarra,campingariztigain.com,948 45 05 40,"431,713,857",-16
0.0,0.000000026167978,Camping Osuna,Calle Jardines de Aranjuez, s/n, 28042 Madrid,Madrid,Madrid,campingosuna.com,917 41 05 10,"404,537,659",-36,032
0.0,0.000000026167978,Camping El Jabalí Blanco,N-260, 22373 Fiscal, Huesca,Fiscal,Huesca,eljabaliblanco.com,974 50 30 74,"424,994,795",-0.1201224,https://goo.gl/maps/TbRTQZF9mhPb9ejz5
0.0,0.000000026167978,Camping Sant Pol,Carrer del Doctor Fleming, 118, 17220 Sant Feliu de Guíxols, Girona,San Felíu de Guixols,Girona,campingsantpol.cat,682 62 79 00,"417,863,005",30
0.0,0.000000026167978,Camping Benelux,Paratge de Castell s/n, 17230 Palamós, Girona,Palamós,Girona,cbenelux.com,972 31 55 75,"41,872,884",3,151
0.0,0.000000026167978,Camping Moraira,Camino del Paellero, 50, 03724 Teulada, Spain, Alicante,Moravit,Alicante,campingmoraira.com,965 74 52 49,"386,859,973"
0.0,0.000000026167978,"Camping &amp; Resort Sangulí Salou",Plaça de Venus, Passeig de Miramar, s/n, 43840 Salou, Tarragona,Salou,Tarragona,sangulisalou.com,977 38 16 41,"410,755,006"
0.0,0.000000026167978,Camping El Arbolado,el espadañal, 26, 39160 Loredo, Cantabria,Loredo,Cantabria,campingelarbolado.com,942 50 44 14,"434,560,525",-37
0.0,0.000000026167978,Camping Cala del Aceite,11149 Conil de la Frontera, Cádiz,Roche,Cádiz,caladelaceite.com,956 44 29 50,36.2997427,-6.1270637,https://goo.gl/maps/TRKYDAEZif8NH5ST9,https://goo.gl/maps/TRKYDAEZif8NH5ST9
0.0,0.000000026167978,Camping Rio-Mar,Partida Deveses, S/N, 46780, Valencia,Molinell,Valencia,campingriomar.com,962 85 40 97,"38,886,053",-0.0391757
0.0,0.000000026167978,Camping el Escocés ahora es Gredos Hoyocasero,Lugar Barrio de los Talleres, 6, 05123 Hoyocasero, Ávila,Hoyocasero,Ávila,gredoshoyocasero.com,920 29 31 50,"40,395,823",-4
0.0,0.000000026167978,Camping Cañones de Guara Formiga,A-1227 KM 22, 22141 Panzano, Huesca,Panzano,Huesca,guarayformiga.es,974 34 30 35,"4,221,439",-0.174021,https://goo.gl/maps/U1RVGmUebunBbMtp6
0.0,0.000000026167978,Camping Lagos De Somiedo,Valle de Lago, 33840, Asturias,Valle de Lago,Asturias,campinglagosdesomiedo.com,606 72 11 25,"430,719,351",-62,016
0.0,0.000000026167978,Camping El Astral,Carretera Nava, 620 Dirección Salamanca, 47100 Tordesillas, Valladolid,Tordesillas,Valladolid,campingelastral.es,983 77 00 95,"414,957,055",-5
0.0,0.000000026167978,Camping la Manga,Av. el Páramo, 0, 24350 Veguellina de Órbigo, León,Barrio de Buenos Aires,León,,987 37 63 76,"424,353,831",-58
0.0,0.000000026167978,Camping Quinta De Cavia,Carretera Valladolid, Km. 17, 09230 Cavia, Burgos,Cavia,Burgos,quintadecavia.es,947 41 20 78,"422,924,373",-38
0.0,0.000000026167978,Al-Bereka,Carretera Salamanca, km75,600, 37624 La Alberca, Salamanca,La Alberca,Salamanca,albereka.com,923 41 51 95,"40,509,084"
0.0,0.000000026167978,Càmping La Fageda,"Crta. d&apos;Olot a Santa Pau", km 3,8, 17800 Olot, Girona,Olot,Girona,campinglafageda.com,972 27 12 39,"42,158,069"
0.0,0.000000026167978,Camping Los Gazules,Calle Cadiz, 11180 Alcalá de los Gazules, Cádiz,Alcalá de los Gazules,Cádiz,campinglosgazules.com,956 42 00 48,36.4630799,-5.6664549,https://goo.gl/maps/UrpqP5hV3UED7s3H9
0.0,0.000000026167978,Camping La Masia,Carrer de Formentera, 6, 17300 Blanes, Girona,Blanes,Girona,campinglamasia.com,972 33 10 13,"416,659,751",27
0.0,0.000000026167978,Camping La Vera,Carretera EX- 203, Km. 51,2, 10450 Jarandilla de la Vera, Cáceres,Jarandilla de la Vera,Cáceres,campinglavera.com,927 56 06 11,"401,229,399"
0.0,0.000000026167978,Camping Monterroso,Av. da Praia, S/N, 27560 Monterroso, Lugo,Monterroso,Lugo,aged-sl.com,982 37 75 01,"427,870,374",-78
0.0,0.000000026167978,Camping La Albolafia,Camino de la Vega, s/n, 14420 Villafranca, Córdoba,Villafranca de Córdoba,Córdoba,campingalbolafia.com,957 19 08 35,37.9535361,-4.5540944
0.0,0.000000026167978,Camping Garrote Gordo,Carretera de la Toba, s/n, 23379 Segura de la Sierra, Jaén,Segura de la Sierra,Jaén,garrotegordocamping.weebly.com,953 12 61 59,38.218331,-2.621781
0.0,0.000000026167978,Camping Las Palmeras,Calle De Camping Las Palmeras, 30626 Los Baños de Fortuna, Murcia,Los Baños de Fortuna,Murcia,campinglaspalmeras.eu,968 68 60 95,"382,054,465",-11,105
0.0,0.000000026167978,Camping Lago Resort,Carretera Nuevalos a Alhama, s/n, 50210 Nuévalos, Zaragoza,Nuévalos,Zaragoza,lagoresort.com,976 84 90 38,"41,218,051",-179
0.0,0.000000026167978,Camping O Curro,Avda. A Lanzada a San Vicente do Mar, 79, 36980 O Grove, PO,El Grove,PO,campingocurro.com,986 73 80 60,"42,464,166",-891
0.0,0.000000026167978,Hecu Camping,Pol. Los Quiñones, Partída de Los Quiñones, s/n, 46177 Tuéjar, Valencia,Tuéjar,Valencia,,961 63 50 42,"397,815,856"
0.0,0.000000026167978,Camping Tarifa,N-340, Km. 78, 870, 11380 Tarifa, Cádiz,Tarifa,Cádiz,campingtarifa.es,956 68 47 78,36.0547194
0.0,0.000000026167978,Camping Quinta da Viña Grande,OU-1208 Lantemil, 32869 Entrimo, Province of Ourense,Entrimo,Province of Ourense,vinagrand.wixsite.com,661 42 38 01,"41,908,481",-8,140
0.0,0.000000026167978,Camping Caledonia,Antiga carretera nacional 340 km 1172, Tamarit-Tarragona, 43008 Tamarit,"La Móra, Tarragona",Tamarit,campingcaledonia.com,977 65 00 98,"41,138,955",1,354
0.0,0.000000026167978,Camping Ribadeo,Carretera de Ribadeo - Coruña, Km 2, 27700 Ribadeo,Ribadeo,Ribadeo,campingribadeo.com,982 13 11 67,"435,385,826",-70,845
0.0,0.000000026167978,Camping la Pesquera,Calle del Regato Cachón, 35, 37500 Cdad. Rodrigo, Salamanca,Cdad. Rodrigo,Salamanca,campinglapesquera.es,923 48 13 48,"405,920,832",-6
0.0,0.000000026167978,Camping Costa San Juan De La Canal S L,Av. Playa San Juan de la Canal, s/n, 39110 Soto de la Marina, Cantabria,"Urb. Soto Blanco, Santa Cruz de Bezana",Cantabria,hotelcostasanjuan.com,942 57 95 80,"434,676,551",-38
0.0,0.000000026167978,Camping Ribera del Ara,Ctra. Bergua, 0, 22373 Fiscal, Huesca,Fiscal,Huesca,riberadelara.com,974 50 30 35,"425,023,081",-0.1213162
0.0,0.000000026167978,Camping Baztan,NA-2600, Km 3.5, 31714 Erratzu, Navarra,Erratzu,Navarra,campingbaztan.com,948 45 31 33,"431,804,899",-14
0.0,0.000000026167978,El Vedado,Carretera Masnou Granollers, Km 7, 08188 Vallromanes, Barcelona,Vallromanes,Barcelona,campingelvedado.com,935 72 90 26,"415,234,158",22
0.0,0.000000026167978,Camping Aquarius,Carretera de la platja, s/n, 17470, Girona,Bon Relax,Girona,campingaquarius.com,972 52 01 01,"421,769,523",31
0.0,0.000000026167978,Camping Bahía de la Plata,Calle Atlanterra, 0 s-n, 11160 Barbate,"Urb. Atlanterra, Tarifa",Barbate,campingbahiadelaplata.com,956 43 90 40,36.1233182,-5.8358476,https://goo.gl/maps/VyN13RAjU1WtSmR66
0.0,0.000000026167978,Camping El Faro,Carretera del Puerto Pesquero, Km 2, Autovía de la Luz, 11149 Costa de la Luz, Conil de la Frontera, Cádiz, Cádiz,Roche,Cádiz,campingelfaro.com
0.0,0.000000026167978,Camping Reino de León,Calle Fragua, 6, 24711 Villamejil, León,Villamejil,León,campingreinodeleon.es,987 60 52 58,"425,603,931",-60
0.0,0.000000026167978,Camping Fayon,Calle Ebro, 0 S/N, 50795 Fayón, Zaragoza,Fayón,Zaragoza,fayonfishing.com,976 63 57 64,"412,416,135",0.3320584
0.0,0.000000026167978,Camping Playa Barreira Leis,Calle Leis, s/n, 15125 Muxía, C,Mugía,C,campingplayaleis.com,981 73 03 04,"431,151,622",-91
0.0,0.000000026167978,Club Camping Bohalar,Ctra. de Madrid, Km. 309, 50190 Zaragoza,"Garrapinillos, Zaragoza",Zaragoza,campingbohalar.com,976 13 16 75,"416,469,455",-10,650
0.0,0.000000026167978,Camping la Isla Picos Europa,Carretera Potes Fuente De, Km 2, 39586 Turieno, Cantabria,Turieno,Cantabria,campinglaislapicosdeeuropa.com,942 73 08 96,"431,576,069",-46
0.0,0.000000026167978,Camping San Pascual,46420 El Perelló, Valencia,El Perelló,Valencia,csanpascual.e.telefonica.net,961 77 02 73,"392,745,025",-0.2777546,https://goo.gl/maps/wh7ES8pNy7p9DBgs9,https://goo.gl/maps/wh7ES8pNy7p9DBgs9
0.0,0.000000026167978,Camping El Llac,"Ctra. Circumval·lació de l&apos;Estany", s/n, 17834 Porqueres, Girona,Porqueras,Girona,campingllac.com,972 57 03 05,"42,120,625",27
0.0,0.000000026167978,Camping Tajo Rodillo,Ctra. El Bosque - Grazalema, km 47 1 1 6, Grazalema, Cádiz,Grazalema,Cádiz,,956 13 24 18,36.7585491,-5.3739371
0.0,0.000000026167978,Camping Fuente de Regrustan,Av. Pirineos, 0, 22430 Graus, Huesca,Graus,Huesca,campingraus.com,,"421,993,508",0.3416765
0.0,0.000000026167978,Camping Lecina,Carretera Lecina, s/n, 22148 Lecina, Huesca,Lecina,Huesca,campinglecina.com,974 31 83 86,"422,291,093",0.047797
0.0,0.000000026167978,Camping Oturia,Calle Baja, s/n, 22612 Yebra de Basa, Huesca,Yebra de Basa,Huesca,campingoturia.es,974 48 11 03,"42,482,422",-0.27984
0.0,0.000000026167978,Camping los Vives,Carretera Salinas Km4, 22366 Saravillo, Huesca,Saravillo,Huesca,campinglosvives.com,974 50 61 71,"42,561,185",0.251624,https://goo.gl/maps/WrgPFzLNrwKnjpsL8
0.0,0.000000026167978,Camping Iratxe,Avenida Prado de Irache, 14, 31240 Ayegui/aiegi,Irache,Ayegui/aiegi,campingiratxe.com,948 55 55 55,"426,458,958",-20,585
0.0,0.000000026167978,Camping Los Arces,Aldea O Vao, 6, 32784, Ourense,O Vao,Ourense,,608 38 44 00,"42,249,668",-71
0.0,0.000000026167978,Camping Voramar Blanes,Av. Vila de Madrid, 37, 17300 Blanes, Girona,Blanes,Girona,campingvoramar.es,972 33 18 05,"416,561,119",27
0.0,0.000000026167978,Camping Bungalowpark Isábena,Ctra. Graus-Viella, Puebla R, km 27, 22482 La Puebla de Roda, Huesca,La Puebla de Roda,Huesca,isabena.eu,974 54 45 30,"423,074,974"
0.0,0.000000026167978,Camping Bungalows Medina Sidonia,Finca de San Juan de la Cruz, Hoyo de Santa Ana, S/N, 11170 Medina-Sidonia, Cádiz,Medina-Sidonia,Cádiz,campingmedinasidonia.com,654 11 23 15,36.4612698
0.0,0.000000026167978,Camping Endai,carretera de la costa Lekeitio Ondarroa km 57,800, 48289, BI,Likona,BI,campingseuskadi.com,946 84 24 69,43.3544352,-2.4854341
0.0,0.000000026167978,Camping Relax Sol,Passeig de Miramar, 246, 43830 Torredembarra, Tarragona,Torredembarra,Tarragona,campingrelaxsol.com,977 64 62 71,"411,485,023",14
0.0,0.000000026167978,Camping Rodas,Carrer de la Punta Falconera, 62, 17480 Roses, Girona,Roses,Girona,campingrodas.com,972 25 76 17,"4,226,875",3
0.0,0.000000026167978,Camping La Barguilla,Lugar Barrio Vegacorredor, S/N, 39800 Ramales de la Victoria, Cantabria,Ramales de la Victoria,Cantabria,campinglabarguilla.com,682 78 75 78,"432,595,439",-34
0.0,0.000000026167978,Camping Almunia,Calle Nao, 10, 22420 Almunia de San Juan, Huesca,Almunia de San Juan,Huesca,camping-almunia.es,696 77 18 51,"419,373,988",0.2401869
0.0,0.000000026167978,Camping La Dehesa,KM., CM-210, 31, 16890 Cañamares, Cuenca,Cañamares,Cuenca,campingladehesa.es,639 55 21 43,"40,463,311"
0.0,0.000000026167978,Camping Villamar,Ctra. Albir, km. 0,300, 03503 Benidorm, Alicante,Benidorm,Alicante,campingvillamar.com,966 81 12 55,"385,552,376"
0.0,0.000000026167978,Camping El Pinar Del Rey,Calle Aĺ Qua-Sid, 04830 Vélez-Blanco, Almería,Abla,Almería,,649 90 11 68,37.6899505,-2.0997462,https://goo.gl/maps/xcTwFfzkYpUwURs9A
0.0,0.000000026167978,Camping Arrien Gorliz,Uresarantze Bidea, 15 Bis, 48630 Gorliz, BI,Górliz,BI,campinggorliz.com,946 77 19 11,43.418155,-2.9374665
0.0,0.000000026167978,Camping Playa Paraiso,Partida Paraíso, 66, 03570 Villajoyosa, Alicante,Villajoyosa,Alicante,campingplayaparaiso.com,966 85 18 38,"384,994,948",-0.2492847
0.0,0.000000026167978,Camping Río Nela,Calle Zocilla, 1, 09540 Trespaderne, Burgos,Trespaderne,Burgos,campingelrionela.com,947 30 86 49,42.8038137,-3.396633
0.0,0.000000026167978,Camping El Cantal De Mojacar,Mojacar Playa, Paseo del Mediterráneo, 299, 04638 Mojácar, Almería,Mojácar,Almería,campingmojacarelcantal.com,950 47 82 04,37.1255139
0.0,0.000000026167978,Camping Laguna Playa,Paseo Marítimo de Pte., 69, 29740 Torre del Mar, Málaga,Torre del Mar,Málaga,lagunaplaya.com,952 54 06 31,36.729621,-4.102395
0.0,0.000000026167978,Río los Molinos,Ctra. de las Acebeas, km 1,5, 23380 Siles, Jaén,Siles,Jaén,riomolinos.com,953 49 10 03,"383,755,243"
0.0,0.000000026167978,Camping San Pedro - Sada,Calle San Pedro, 43, 15169 Sada, C,Sada,C,,981 62 82 92,"433,822,136",-8
0.0,0.000000026167978,Complejo Turístico Camping Bielsa,Carretera A-138 KM 79,5, 22350 Bielsa, Huesca,Bielsa,Huesca,campingbielsa.com,974 50 12 20,"426,289,485",0.2273078
0.0,0.000000026167978,Camping Cabeiro,Playa Cabeiro, 35, 15970 Porto do Son, C,Puerto del Son,C,campingcabeiro.es,981 76 73 55,"427,339,439",-89
0.0,0.000000026167978,Camping Aneto,Carretera A-139, km 63.5, 22440 Benasque, Huesca,Benasque,Huesca,campinganeto.com,974 55 11 41,"42,624,566",0.544492
0.0,0.000000026167978,Camping Miramar Playa,Passeig de Miramar, 170, 43830 Torredembarra, Tarragona,Torredembarra,Tarragona,campingmiramarplaya.com,977 64 47 05,"411,459,266",14
0.0,0.000000026167978,Kelly Camping Allariz,Rua Camping, 39, 32665 Allariz, Ourense,Castrelo,Ourense,,,"421,849,537",-78
0.0,0.000000026167978,Camping Refugio de Pescadores,El Lomo, S/N, 42157 Covaleda, Soria,Covaleda,Soria,covaleda.com,975 37 01 66,"419,251,925",-28
0.0,0.000000026167978,Camping Arenteiro,Parque etnográfico do Arenteiro, s/n, 32500 O Carballiño, Province of Ourense,Miomás,Province of Ourense,,988 27 38 09,"424,234,397",-80
0.0,0.000000026167978,Camping Casavieja,Paraje Charco las Cabras, 0, 05450 Casavieja, Ávila,Casavieja,Ávila,campingcasavieja.com,918 67 88 28,"403,029,149",-47
0.0,0.000000026167978,Camping Alcalá,Alicante, 03788, Alicante,Alcalá de la Jovada,Alicante,,965 51 43 33,"3,879,474",-0.2562019,https://goo.gl/maps/ycXVCG5pK65BZSNP6
0.0,0.000000026167978,Camping Urbión,Ctra de Abejar a Molinos de Duero, 42146 Abejar, Soria, Soria,Abejar,Soria,campingurbion.com,975 23 16 30,"418,399,689",-27
0.0,0.000000026167978,Camping Río Luna,Carretera de Abelgas, Km 0,8, 24145 Sena de Luna, León,Arévalo,León,campingrioluna.com,987 59 77 14,"429,216,785"
0.0,0.000000026167978,"Càmping &amp; Bungalows Vall de Laguar",Carrer Sant Antoni, 24, 03791 Campell, Alicante,Campell,Alicante,campinglaguar.com,965 58 45 90,"387,768,887",-0.1057004
0.0,0.000000026167978,Camping la Torrecilla,Carretera Bosque A, Calle Benamahoma, 0, Km 1, 11670 El Bosque, Cádiz,El Bosque,Cádiz,campinglatorrecilla.es,629 48 39 13
0.0,0.000000026167978,Camping Pantano Del Burguillo,Calle Carretera, 0, 05278 Barraco, Ávila,Calas del Burguillo,Ávila,pantanodelburguillo.com,920 28 77 07,"404,283,201",-461
0.0,0.000000026167978,Camping Faro de Trafalgar,Los Caños de Meca, Avda. de las Acacias, 3, 11159 Barbate, Cádiz,Barbate,Cádiz,campingfarodetrafalgar.com,956 43 70 17,36.189133
0.0,0.000000026167978,Camping Altos De Viñuelas,Camino de Beas al Cortijo de La Plata, 18184 Beas de Granada, Granada,Beas de Granada,Granada,campingaltodevinuelas.com,,37.2251769,-3.4881743,https://goo.gl/maps/YHKA4r3JPKtemF4r8
0.0,0.000000026167978,Camping Galdona,Barrio Galdonamendi, s/n, 20830 Mutriku, SS,Motrico,SS,campinggaldona.com,943 60 35 09,43.31738,-2.402227
0.0,0.000000026167978,Camping La Rana Verde,Carr. de las Lagunas, s/n, 11130 Chiclana de la Frontera, Cádiz,Chiclana de la Frontera,Cádiz,campinglaranaverde.com,956 49 43 48,36.3949124,-6.1569387
0.0,0.000000026167978,Camping Canon do Sil,Unnamed Road, 32749, Castro, Province of Ourense,Castro,Province of Ourense,canondosilcamping.com,608 53 70 17,"423,895,026",-75
0.0,0.000000026167978,Camping San Juan,Km 22.2, M-600, 28210 Valdemorillo, Madrid,Valdemorillo,Madrid,campingsanjuan.com,918 99 03 00,"405,083,541",-40
0.0,0.000000026167978,CAMPING LA RAFA,Paraje la Rafa, s/n, 30180 Bullas, Murcia,Bullas,Murcia,larafabullas.es,968 65 46 66,"38,035,957",-1
0.0,0.000000026167978,Camping Valle de Bujaruelo,Carretera de Bujaruelo, s/n, 22376 Torla-Ordesa, Huesca,Torla-Ordesa,Huesca,campingvalledebujaruelo.com,974 48 63 48,"426,772,608",-0.1238532
0.0,0.000000026167978,Camping Buenavista en Perlora,Carretera AS-239 km.8 (a 2 km. de Candás), 33491 Perlora, Asturias,Perlora,Asturias,campingbuenavista.com,985 87 17 93,"435,759",-5,745
0.0,0.000000026167978,Camping Mérida.,Autovía del Suroeste, Km 336, 06800, Badajoz,Mérida,Badajoz,camping-merida.negocio.site,924 30 34 53,"389,348,443",-6
0.0,0.000000026167978,Camping La Verneda,Avinguda Maresme, 35, 08396 Sant Cebrià de Vallalta, Barcelona,San Cipriano de Vallalta,Barcelona,campinglaverneda.com,937 63 11 85,"416,176,963",26
0.0,0.000000026167978,"B&amp;B Hotel Tarragona Centro Urbis",Plaça de Corsini, 10, 43001 Tarragona,Tarragona,Tarragona,hotel-bb.com,977 24 01 16,"411,150,919",1,249
0.0,0.000000026167978,Camping La Nava,Carretera de Peguerinos- Alto del León KM, 3600, 05239 Peguerinos, Ávila,Peguerinos,Ávila,campinglanava.es,918 98 32 72,"406,557,931",-42
0.0,0.000000026167978,"Àrea d&apos;acampada",43371 Margalef, T,Margalef de Montsant,T,campingmargalef.com,687 77 16 87,"412,848,347",0.751238,https://goo.gl/maps/ZJH7WDA2Yk7Vch4k7,https://goo.gl/maps/ZJH7WDA2Yk7Vch4k7
0.0,0.000000026167978,Camping Alardos,Carretera Candeleda, s/n, 10480 Madrigal de la Vera, Cáceres,Madrigal de la Vera,Cáceres,campingalardos.com,927 56 50 66,"40,148,015",-535
0.0,0.000000026167978,CAMPING VILLSOM,Carretera N-IV, km 554,8, 41703 Dos Hermanas, Sevilla,Dos Hermanas,Sevilla,campingvillsom.blogspot.ie,954 72 08 28,37.2777462
0.0,0.000000026167978,Camping San Vicente,Av. de la Mota, 24, 46770 Xeraco, Valencia,Jaraco,Valencia,campingsanvicente.com,962 88 81 88,"390,533,177",-0.1977363
0.0,0.000000026167978,Camping Sant Salvador,Av. Palfuriana, 88-92, 43880 Coma-ruga, Tarragona,Comarruga,Tarragona,campingsantsalvador.com,977 68 08 04,"411,833,113",1
0.0,0.000000026167978,Camping El Helguero,C/ El Helguero, s/n, 39527 Ruilobuca, Cantabria,Ruilobuca,Cantabria,campingelhelguero.com,942 72 21 24,"43,382,145",-424
0.0,0.000000026167978,Camping Mariola,Calle Alcoy, Km 9, 46880 Bocairent, Valencia,Bocairente,Valencia,campingmariola.com,962 13 51 60,"387,532,578",-0.5493498
0.0,0.000000026167978,Camping Castell De Montgri,"Camí Vell de Torroella a l&apos;Estartit", 11, 15, 17258 Torroella de Montgrí, Girona,Urbanització Mas Marquès,Girona,camping-castellmontgri.com,,"420,497,044"
0.0,0.000000026167978,Camping Pedro Ponce,Avda. Tineo, s/n, 24320 Sahagún, León,Sahagún,León,turismosahagun.com,987 78 04 15,"423,714,118",-50
0.0,0.000000026167978,Camping Molí de Vilamala,Carretera De Les Encies Km 32," 17172 Les Planes d&apos;Hostoles", Girona,Las Planas de Hostoles,Girona,,972 44 82 88,"420,623,102",25,519
0.0,0.000000026167978,Camping Vivero,Martin Ledesma, s/n, 27850 Viveiro, Lugo,Vivero,Lugo,campingvivero.com,982 56 00 04,"436,684,064",-75
0.0,0.000000026167978,Camping Paisaxe II,Lugar A Iglexa, 11, 36988 San Vicente do Grove, Pontevedra,San Vicente do Grove,Pontevedra,campingplayapaisaxe.com,986 73 83 31,"424,751,209",-89
0.0,0.000000026167978,Camping Mascún,Carretera Abiego, s/n, 22144 Rodellar, Huesca,Rodellar,Huesca,campingmascun.com,974 31 83 67,"42,282,217",-0.077426
0.0,0.000000026167978,Camping las Hoces de Vegacervera,Calle Las raneras s/n, 24836 Vegacervera, León,Vegacervera,León,,616 40 96 78,"42,892,443",-553,444
0.0,0.000000026167978,Camping El Puente,Plaza Ag Rodellar, 22144 Bierge, Huesca,Pedruel,Huesca,campingelpuente.com,626 84 11 75,"422,700,012",-0.0798283,
0.0,0.000000026167978,Camping los Chozos de Gredos,Camino de los Chozos de Gredos s/n, 05690 Bohoyo, Ávila,Bohoyo,Ávila,loschozosdegredos.es,630 82 88 60,"403,123,997",-5,430
0.0,0.000000026167978,Camping El Burro Blanco,Calle Corta, 0, 37660 Miranda del Castañar, Salamanca,Miranda del Castañar,Salamanca,elburroblanco.net,923 16 11 00,"404,749,847",-59
0.0,0.000000026167978,Camping las Cavenes,Carr. Cdad. Rodrigo, KM 80, 37620 El Cabaco, Salamanca,El Cabaco,Salamanca,campinglascavenes.com,923 45 41 05,"40,567,596",-61
0.0,0.000000026167978,Camping Las Villuercas Guadalupe,Carretera VIllanueva, s/n, 10140 Guadalupe, Cáceres,Guadalupe,Cáceres,campinglasvilluercasguadalupe.es,927 36 71 39,"394,415,081",-53
0.0,0.000000026167978,Camping La Capea,N-630, km. 333, 37189 Aldeaseca de la Armuña, Salamanca,Aldeaseca de la Armuña,Salamanca,campingsalamancalacapea.com,923 25 10 66,"410,265,699",-56
0.0,0.000000026167978,Camping la torre del sol,N 1136 43300," Carrer de l&apos;Orquídia", 34, Miami Platja, Tarragona,La Torre del Sol,Tarragona,latorredelsol.com,977 81 04 86,"410,362,445"
0.0,0.000000026167978,"Camping Castellote &quot;La Rasmia&quot;",Ctra. del Pantano S/N, 44560 Castellote, Teruel,Castellote,Teruel,campingcastellote.com,978 88 00 05,"407,752,357",-0.3182379,
0.0,0.000000026167978,Camping Arnia,Barrio la Arnía, 39120 Liencres, Cantabria,Liencres,Cantabria,campings.net,942 57 94 50,"434,709,262",-39,183
0.0,0.000000026167978,Camping Riudarenes S.L.,C/ la Riera, s/n, 17421 Riudarenes, Girona, Girona,Can Fornaca,Girona,camping-riudarenes.com,972 85 64 08,"418,085,646"
0.0,0.000000026167978,Camping Puerta de la Demanda - Burgos,Crta. Pradoluengo, Km 2, 09199 Villasur de Herreros, Burgos,Villasur de Herreros,Burgos,puertadelademanda.com,947 56 23 59,"423,065,995",-33
0.0,0.000000026167978,Camping Navagredos,Carretera Navatormes, Km. 2.5, 05635 Navarredonda de Gredos, Ávila,Navarredonda de Gredos,Ávila,navagredos.com,658 54 47 76,"4,034,216",-5
0.0,0.000000026167978,Camping La Unión,Carrer de Pompeu Fabra, 37, 43840 Salou, Tarragona,Salou,Tarragona,campinglaunion.es,977 38 48 16,"410,726,355",11
0.0,0.000000026167978,Camping Río Segura,Carretera de Yeste a, Calle Santiago, km 18, 02489 Yeste, Albacete,Yeste,Albacete,campingriosegura.com,660 55 55 54,"382,962,068"
0.0,0.000000026167978,Camping Ibaia,Nacional 102, 01195 Zuhatzu Gasteiz, Álava,Vitoria-Gasteiz,Álava,campingibaia.com,945 14 76 20,"428,306,495",-27,221
0.0,0.000000026167978,Camping Aritzaleku kanpina,Calle San Pedro, 0, 31291 Lerate, Navarra,Lerate,Navarra,aritzaleku.com,686 69 91 33,"42,719,843",-19
0.0,0.000000026167978,Camping Lizarra Navarra,Paraje de Ordoiz, s/n, 31200 Estella, Navarra,Estella,Navarra,campinglizarra.com,948 55 17 33,"426,569,072",-20
0.0,0.000000026167978,Camping Colombres,Carretera El Peral a Noriega, Km 1, 33590 Colombres, Asturias,Colombres,Asturias,campingcolombres.com,985 41 22 44,"433,754,668",-45
0.0,0.000000026167978,"Camping &amp; Bungalows Itxaspe",Barrio Itxaspe, s/n, 20829 Deba-Itziar, SS,Itxaspe,SS,campingitxaspe.com,943 19 93 77,"4,329,384",-2
0.0,0.000000026167978,Camping Sacedón Ecomillans,Carretera N320, km 221, 19120 Sacedón, Guadalajara,Sacedón,Guadalajara,campingsacedon.com,949 35 10 18,"404,822,299",-27
0.0,0.000000026167978,Camping La Playa,Av. de la Playa, 6, 26009 Logroño, La Rioja,Logroño,La Rioja,campinglaplaya.com,941 25 22 53,"424,712,299",-24
0.0,0.000000026167978,Camping Los Pinos,Camino la Racona, 16, 03700 Dénia, Alicante,Denia,Alicante,lospinosdenia.com,965 78 26 98,"38,829,581",0.146724
0.0,0.000000026167978,Camping Virgen del Mar,Av. Virgen del Mar, 60, 39012 Santander, Cantabria,Santander,Cantabria,campingvirgendelmar.com,942 34 24 25,"434,752,585",-38
0.0,0.000000026167978,Camping Begur,"Ctra. d&apos;Esclanyà", 4, 17255, Girona,Begur,Girona,campingbegur.com,972 62 32 01,"41,939,976",3
0.0,0.000000026167978,Camping Arenal de Moris,Camping Arenal de Moris, 33346 Caravia, Asturias,Caravia,Asturias,arenaldemoris.com,985 85 30 97,"4,347,255",-5,183
0.0,0.000000026167978,Camping Tucan,Av. Vila de Blanes, 179, 17310 Lloret de Mar, Girona,Lloret de Mar,Girona,campingtucan.com,972 36 99 65,"416,971,036",28
0.0,0.000000026167978,Camping Alicante Imperium,CV-759, Km. 1, 03570 Villajoyosa, Alicante,Villajoyosa,Alicante,campingalicanteimperium.com,965 06 32 32,"385,173,725",-0.2228702
0.0,0.000000026167978,Camping El Rosal,Carretera de la playa, s/n, 39540 San Vicente de la Barquera, Cantabria,San Vicente de la Barquera,Cantabria,campingelrosal.com,942 71 01 65,"43,388,945",-4
0.0,0.000000026167978,Camping Las Corralizas,del Canto Km 1.5, Calle Fuente, 44367 Bronchales, Teruel,Bronchales,Teruel,lascorralizas.com,978 72 10 50,"40,500,093",-1
0.0,0.000000026167978,Camping Montblanc Park Capfun,Barri Prenafeta, km.1,8, 43400, Tarragona,Montblanc,Tarragona,capfun.com,977 86 25 44,"413,768,559"
0.0,0.000000026167978,Camping Vendrell Platja,Av. del Sanatori, S/N, 43880 Coma-ruga, Tarragona,Comarruga,Tarragona,vendrellplatja.es,977 69 40 09,"41,185,646",1
-8.21904,43.425750526168,Camping O Raso A Coruña,,,,,,,,,,
2.8291314,41.923155826168,Camping Girona Can Toni Manescal,,,,,,,,,,
-3.4387134,36.903749126168,Camping Puerta de la Alpujarra,,,,,,,,,,
-0.304106300000058,42.619432626168,Camping Gavín S.L.,,,,,,,,,,
-8.902047,42.467679026168,Camping Os Fieitas,,,,,,,,,,
-8.288398,43.382213626168,Camping San Pedro - Sada,,,,,,,,,,
-8.2919091,43.383492326168,Camping Velo Mar,,,,,,,,,,
2.9128442,42.372890026168,Camping L'Albera,,,,,,,,,,
0.831848,41.860628026168,Camping la Noguera,,,,,,,,,,
1.3430102,42.023995526168,Camping la Ribera Salada,,,,,,,,,,
1.5162604,42.012886026168,Camping El Solsonès,,,,,,,,,,
0.767384399999969,42.005137826168,Camping Vall d'Àger,,,,,,,,,,
1.593275,42.145587026168,Càmping Morunys,,,,,,,,,,
1.463463,42.428514026168,Camping Frontera Park,,,,,,,,,,
1.430317,42.347840026168,Camping Gran Sol,,,,,,,,,,
0.941369,42.326221026168,Camping Senterada,,,,,,,,,,
0.86579,42.380730026168,Camping Sol I Fred,,,,,,,,,,
-3.695998,38.879775026168,Camping Los Arenales Almagro,,,,,,,,,,
-4.8271776,38.347626626168,CAMPING CIUDAD DEL OCIO,,,,,,,,,,
-3.4976871,38.504680026168,La Taza Camping Relax,,,,,,,,,,
-5.7190757,40.098780526168,Camping Carlos I,,,,,,,,,,
-5.880227,40.269491026168,Camping El Pinajarro Hervás,,,,,,,,,,
-6.297552,39.918434026168,Camping Las Catalinas,,,,,,,,,,
-1.843053,42.624330026168,Camping El Molino,,,,,,,,,,
-2.8538935,42.578232026168,Camping de Haro,,,,,,,,,,
-1.8872486,43.000026226168,Camping Aralar BAR-RESTAURANTE,,,,,,,,,,
-0.510626300000013,39.874806526168,Camping - Bungalows Altomira,,,,,,,,,,
-6.2341237,37.277332326168,Camping Dehesa Nueva,,,,,,,,,,
-6.726036,37.099516026168,Camping Doñana,,,,,,,,,,
-5.598541,43.513934026168,Camping Deva Gijón,,,,,,,,,,
0.520741300000054,40.539977726168,Camping & Bungalows Estanyet,,,,,,,,,,
1.111249,42.569074026168,Càmping la Mola. Parcel·les i bungalous.,,,,,,,,,,
1.228768,42.559347026168,Càmping del Cardós,,,,,,,,,,
1.131501,42.592340026168,Nou Camping Bungalows,,,,,,,,,,
1.2467853,42.613257426168,Camping Serra,,,,,,,,,,
1.124987,42.614765026168,Aigüestortes Camping Resort,,,,,,,,,,
1.0751699,42.583415326168,Camping Voraparc,,,,,,,,,,
1.2305099,42.568946926168,Camping La Borda Del Pubill,,,,,,,,,,
1.7587436,42.226689126168,Camping Repòs del Pedraforca,,,,,,,,,,
1.7998914,42.112954926168,Camping Fontfreda S.L.,,,,,,,,,,
2.1017886,41.978953226168,Camping Lluçanes,,,,,,,,,,
2.1745863,42.219983626168,Camping Ripolles,,,,,,,,,,
2.119189,42.236343026168,Camping Molí Serradell,,,,,,,,,,
1.921963,42.241006626168,Camping L' Espelt,,,,,,,,,,
1.835768,42.216369626168,Camping El Berguedà,,,,,,,,,,
1.9159134,42.392825526168,Càmping QUEIXANS,,,,,,,,,,
2.307386,42.333645026168,Camping Conca de Ter,,,,,,,,,,
1.673264,42.416401626168,Camping El Cortal del Gral,,,,,,,,,,
1.760537,42.372979026168,Camping Solana del Segre,,,,,,,,,,
1.8069506,42.370814826168,CAMPING BELLVER,,,,,,,,,,
1.9409431,42.441350826168,Camping Stel,,,,,,,,,,
1.906463,42.443134026168,Camping Pirineus,,,,,,,,,,
2.3644155,42.289242826168,Camping Vall de Camprodón,,,,,,,,,,
2.1964103,42.182921026168,Camping Solana de Ter,,,,,,,,,,
1.878665,42.013679026168,Camping Gironella,,,,,,,,,,
0.700248699999975,42.749618726168,Camping Prado Verde,,,,,,,,,,
0.746570799999972,42.736933126168,Verneda Camping Mountain Resort,,,,,,,,,,
0.710863199999949,42.448631226168,CAMPING ALTA RIBAGORÇA,,,,,,,,,,
0.760512699999936,42.735828326168,Camping Artigane,,,,,,,,,,
0.698220600000013,42.794907526168,CAMPING ESPALIAS,,,,,,,,,,
0.706936499999983,42.805813426168,Càmping Cauarca,,,,,,,,,,
0.800917,42.503292026168,Camping Boneta,,,,,,,,,,
-5.756302,43.583734026168,Camping Perlora,,,,,,,,,,
-8.053224,43.385963026168,Camping Fragadeume,,,,,,,,,,
-8.1887857,43.598365826168,Fontesin Camping,,,,,,,,,,
-8.3529149,42.913700926168,Camping Peregrino O Castiñeiro,,,,,,,,,,
-8.938493,42.770896026168,Camping Punta Batuda,,,,,,,,,,
-8.7596016,42.634601626168,Camping Río Ulla,,,,,,,,,,
-8.869927,42.538389026168,Camping El Edén,,,,,,,,,,
-8.8689424,42.534254926168,Camping Salinas,,,,,,,,,,
-8.972568,42.569991026168,Camping Coroso,,,,,,,,,,
-9.1122067,42.757533926168,Camping Ancoradoiro,,,,,,,,,,
-9.0733871,42.762314826168,Camping San Francisco,,,,,,,,,,
-8.810625,43.296555026168,Camping Sisargas,,,,,,,,,,
-6.7456483,42.561816926168,Camping Bierzo,,,,,,,,,,
-6.6617865,42.724587126168,Camping Rivera del Cua,,,,,,,,,,
-6.9043507,42.650200726168,Camping Valle do Seo,,,,,,,,,,
-5.6034471,40.975007726168,Camping Don Quijote,,,,,,,,,,
-5.614474,40.947795326168,Camping Regio,,,,,,,,,,
-6.0842923,40.403071026168,Camping Riomalo,,,,,,,,,,
-2.0649605,40.412989326168,SERRANÍA,,,,,,,,,,
-2.00221,40.311969526168,Camping las Majadas,,,,,,,,,,
-0.732529099999965,39.926331626168,Camping Los Cloticos,,,,,,,,,,
-0.60767020000003,39.915435326168,Camping Villa De Viver,,,,,,,,,,
-1.089097,39.868728626168,Piscina Camping Titaguas,,,,,,,,,,
-0.947264,39.585398326168,Camping Pantano De Buseo,,,,,,,,,,
-0.7801988,39.606484626168,Camping Río Turia Bugarra S.L.,,,,,,,,,,
-1.358141,39.481330026168,Camping Venta del Moro,,,,,,,,,,
-0.7757206,39.060453826168,Camping Ceja Del Río Grande,,,,,,,,,,
-0.841670799999974,38.922472526168,Camping El Teularet,,,,,,,,,,
-3.2703974,36.994016726168,Camping Trevelez,,,,,,,,,,
-3.0119209,37.010810326168,Camping Alpujarras,,,,,,,,,,
-3.3867985,36.900308426168,Cortijo La Lomilla,,,,,,,,,,
-3.4879379,36.912071026168,Camping Al Firdaus,,,,,,,,,,
-3.652735,37.067769026168,Camping & Bungalows Suspiro del Moro,,,,,,,,,,
-3.5861325,37.124728926168,Camping Reina Isabel,,,,,,,,,,
-3.491928,37.138444026168,Camping Ruta del Purche,,,,,,,,,,
-3.492983,37.154257026168,Fuente Del Lobo - Camping & Bungalows,,,,,,,,,,
-3.6542669,37.191740226168,Chill Out Nevada Camping & Bungalows,,,,,,,,,,
-4.9188147,37.682303726168,Camping Carlos III,,,,,,,,,,
-7.2524339,37.208317326168,Camping Luz,,,,,,,,,,
-7.1935933,37.215745226168,Camping Antilla,,,,,,,,,,
-6.798391,37.125012026168,Camping Playa de Mazagón,,,,,,,,,,
-5.338068,36.250306026168,Camping La Casita Cádiz,,,,,,,,,,
-5.3346378,36.191660826168,Camping Sureuropa,,,,,,,,,,
-2.915196,42.441220126168,Camping Bañares,,,,,,,,,,
-2.921689,42.530184326168,Camping de La Rioja,,,,,,,,,,
-1.0928761,42.899733126168,Camping Osate,,,,,,,,,,
-0.711374,42.834302026168,Camping Selva de Oza S.L.,,,,,,,,,,
-0.358987,42.527443026168,Camping Sabiñánigo,,,,,,,,,,
-0.339175800000021,42.557873826168,Camping Valle De Tena,,,,,,,,,,
-0.109475,42.639994726168,Camping Ordesa - Bungalows Ordesa,,,,,,,,,,
-0.107484800000066,42.694207626168,Camping San Nicolás de Bujaruelo,,,,,,,,,,
1.08624,42.574357826168,Camping la Torre,,,,,,,,,,
1.0809478,42.359215826168,Camping i apartaments Beta,,,,,,,,,,
3.1843093,42.342268626168,Camping Port De La Vall,,,,,,,,,,
3.1539277,42.371525526168,Càmping L'Ombra,,,,,,,,,,
3.2096495,42.240407826168,Camping Ampurdanes,,,,,,,,,,
3.136916,42.254183726168,Camping Castell Mar,,,,,,,,,,
-6.3336495,40.298180826168,Camping Bungalows Del Pino,,,,,,,,,,
-3.688949,40.317124026168,Bungalows - Camping - Alpha,,,,,,,,,,
-6.01346,39.096203026168,Camping-Restaurante El 301,,,,,,,,,,
-3.557006,40.900210026168,Camping El Picachuelo,,,,,,,,,,
-3.751029,40.843247826168,Camping El Valle,,,,,,,,,,
-1.5741831,41.853999826168,Ecocamping Borja,,,,,,,,,,
-0.996573300000023,42.429718226168,Camping Luesia,,,,,,,,,,
-0.675321599999961,42.282088426168,Camping la Banera,,,,,,,,,,
-0.419642299999964,42.136768626168,Camping San Jorge,,,,,,,,,,
0.565717,41.906212026168,Camping Las Planas,,,,,,,,,,
0.86591640000006,42.004200026168,Camping Montsec,,,,,,,,,,
0.986195,42.260250026168,Camping Collegats,,,,,,,,,,
0.982125099999962,42.423977826168,Camping Vall Fosca,,,,,,,,,,
1.9365724,41.738013026168,Camping La Tatgera,,,,,,,,,,
1.8598223,41.738178326168,Camping Freixa,,,,,,,,,,
2.296626,41.865233026168,Camping La Vall,,,,,,,,,,
2.2623974,41.764748726168,Camping L'Avencó,,,,,,,,,,
2.2884745,41.901585326168,Camping Santa Eugenia Park,,,,,,,,,,
2.3849083,41.911506826168,Camping Molí De Bojons,,,,,,,,,,
2.4087497,41.934257926168,Camping El Pont,,,,,,,,,,
2.4644673,42.030523926168,Camping Rupit,,,,,,,,,,
2.7533035,42.373346226168,Càmping Maçanet De Cabrenys,,,,,,,,,,
-2.7417577,40.379437126168,"Asociacion camping, La Isla",,,,,,,,,,
-6.129296,43.553655826168,Camping Cudillero - Asturias,,,,,,,,,,
-6.22146,43.574367026168,Camping San Pedro de la Ribera,,,,,,,,,,
-2.078733,36.803305026168,Camping Los Escullos,,,,,,,,,,
-2.245281,36.801152026168,Camping Cabo de Gata,,,,,,,,,,
-2.3178215,37.081161626168,Camping oro verde,,,,,,,,,,
-1.853599,37.260528026168,Resort Indalo,,,,,,,,,,
-1.7987275,37.238364526168,Camping Cuevas Mar,,,,,,,,,,
-2.236568,37.709144026168,Camping Sierra María,,,,,,,,,,
-1.9436893,38.213005626168,Camping La Puerta,,,,,,,,,,
-1.7191981,38.255691026168,Camping Viveros,,,,,,,,,,
-2.6521224,38.298230226168,Camping El Robledo,,,,,,,,,,
-2.439894,38.372144426168,Camping Rio Tus Yeste Albacete,,,,,,,,,,
-2.762317,37.867020026168,Camping El Cortijillo,,,,,,,,,,
-2.9123271,37.759776626168,camping sierra cazorla,,,,,,,,,,
-4.3234983,37.262860526168,Camping Valdearenas de Iznájar,,,,,,,,,,
-4.38745,37.286790026168,Camping La Isla,,,,,,,,,,
-4.534349,37.257283026168,CAMPING RAFTING BENAMEJI,,,,,,,,,,
-4.733406,37.128890026168,Camping Rural Fuente de Piedra,,,,,,,,,,
-6.010857,40.429884026168,Camping Vega de Francia,,,,,,,,,,
-2.11858,42.771305026168,Camping Artaza-Urederra,,,,,,,,,,
-1.6927254,42.937527726168,Camping Izarpe,,,,,,,,,,
-4.2896916,43.227094226168,Camping y Apartamentos El Molino de Cabuérniga,,,,,,,,,,
-4.882921,43.128232026168,Camping El Cares Picos de Europa,,,,,,,,,,
-4.3005989,42.785900826168,Monte Royal,,,,,,,,,,
-4.6517602,43.400717126168,Camping La Paz,,,,,,,,,,
-4.787571,43.424219026168,Camping Las Conchas,,,,,,,,,,
-4.8230556,43.435000026168,Camping Sorraos,,,,,,,,,,
-4.818129,43.434632026168,Camping Playa de Troenzo,,,,,,,,,,
-4.8140247,43.433394826168,Camping María Elena,,,,,,,,,,
-5.3367212,43.509792326168,Camping Villaviciosa en Asturias,,,,,,,,,,
-5.529551,43.542635026168,Camping Playa España,,,,,,,,,,
-4.134281,41.589268026168,RIBERDUERO Camping&Bungalows,,,,,,,,,,
1.270217,41.677777626168,Càmping Aquelarre,,,,,,,,,,
2.509983,42.189462026168,Camping Restaurant Les Tries - Olot - Garrotxa,,,,,,,,,,
2.584239,42.243473626168,Camping Can Banal,,,,,,,,,,
2.211454,42.306948026168,Camping Pardines Girona,,,,,,,,,,
3.1037943,42.206125526168,Camping Nautic Almata,,,,,,,,,,
3.1081513,42.189347726168,Camping La Gaviota Costa Brava,,,,,,,,,,
3.1079841,42.176952326168,Camping Aquarius,,,,,,,,,,
3.1084327,42.160732926168,Associació de Càmpings de Sant Pere Pescador,,,,,,,,,,
3.987321,39.951112726168,Camping S'Atalaia,,,,,,,,,,
-6.6726403,37.904089826168,"El Madroñal, Camping y Alojamientos",,,,,,,,,,
-5.9128175,42.294296226168,Camping Vía de la Plata,,,,,,,,,,
-4.324131,40.371662026168,Camping La Ardilla Roja,,,,,,,,,,
-0.1936164,39.719561526168,Camping Malvarrosa de Corinto,,,,,,,,,,
-0.127309,39.808433526168,CAMPING MONMAR,,,,,,,,,,
0.158348400000023,40.121111626168,Camping y Bungalows Didota,,,,,,,,,,
0.267191,40.221049226168,Camping Playa Tropicana Castellón,,,,,,,,,,
0.306692699999985,40.270301126168,Ribamar Camping & Bungalows,,,,,,,,,,
0.392398800000024,40.376152926168,Camping El Cid,,,,,,,,,,
0.352941699999974,40.451797526168,Camping Bungalows L'Orangeraie,,,,,,,,,,
-16.7833972,28.198361526168,Camping El Castillo De Himeche,,,,,,,,,,
-15.396888,27.892465026168,Camping Playa de Vargas,,,,,,,,,,
-15.48942,27.897731526168,Camping Temisas,,,,,,,,,,
-15.8257949,27.908327126168,Camping Tasartico,,,,,,,,,,
-15.662679,27.826602226168,Camping El Pinillo,,,,,,,,,,
-16.6630909,28.028549626168,Camping Nauta,,,,,,,,,,
-16.3762788,28.537665726168,Agro Camping Invernaderito,,,,,,,,,,
-13.7821019,28.845633726168,Camping Papagayo,,,,,,,,,,
-0.24047,40.828678026168,Camping la Palanca del Mas,,,,,,,,,,
-0.165836,40.798707926168,Camping Dos Rocas,,,,,,,,,,
-0.268666100000019,40.439663526168,Camping El Llosar,,,,,,,,,,
-0.882489599999985,40.832125426168,Camping Las Cabañas,,,,,,,,,,
-0.697625799999969,40.672875826168,Camping La Morta,,,,,,,,,,
-1.651746,40.545332026168,Camping Caimodorro,,,,,,,,,,
-2.1406606,40.126711926168,Camping Caravaning Cuenca,,,,,,,,,,
-2.8350542,38.057387526168,Camping Fuente de La Pascuala,,,,,,,,,,
-2.6838634,38.251649326168,Camping El Robledo,,,,,,,,,,
-2.767374,38.286151026168,Camping Cañada Catena,,,,,,,,,,
-3.0137193,37.905017526168,Camping Cortijo San Isicio,,,,,,,,,,
-2.7881403,41.816546626168,Camping El Concurso,,,,,,,,,,
-3.0221629,41.992500226168,Camping Arlanza,,,,,,,,,,
-3.6313405,42.334360326168,Campus Baloncesto Camping Fuentes Blancas,,,,,,,,,,
-4.1318591,42.290946526168,Camping Camino De Santiago,,,,,,,,,,
2.5963887,42.270840826168,Càmping Masia Sadernes,,,,,,,,,,
1.1108868,42.372595526168,Camping,,,,,,,,,,
1.0977734,42.572324826168,Camping Sol i Neu,,,,,,,,,,
0.5459903,42.626362426168,Camping Ixeia,,,,,,,,,,
0.3697353,42.660382226168,Camping El Forcallo,,,,,,,,,,
0.2051474,42.583536526168,Camping San Marcial,,,,,,,,,,
-0.1070417,42.631568926168,Camping Río Ara,,,,,,,,,,
-0.131471,42.597489026168,Camping Oto,,,,,,,,,,
-7.2486491,39.325723826168,Camping Aguas Claras,,,,,,,,,,
-6.2402341,38.052794326168,Restaurante Camping Badajoz,,,,,,,,,,
-5.6668066,40.135830826168,Camping Jaranda,,,,,,,,,,
-5.152683,40.223768026168,Comida a domicilio Camping Los Galayos en Guisando,,,,,,,,,,
-5.1748578,40.340404926168,El Camping de Gredos,,,,,,,,,,
-6.014496,36.188311026168,Camping Camaleón,,,,,,,,,,
-5.692944,36.070498026168,Camping Jardin de Las Dunas,,,,,,,,,,
-5.6300296,36.042598026168,Camping Río Jara S.L.,,,,,,,,,,
-5.0814722,36.454031626168,Camping Parque Tropical,,,,,,,,,,
-5.2984525,36.579658926168,Camping El salitre verdadero,,,,,,,,,,
-5.1724186,36.720943426168,Camping El Sur,,,,,,,,,,
-5.4582933,36.770299326168,Camping los Linares,,,,,,,,,,
-4.8040402,36.919754926168,Camping Parque Ardales,,,,,,,,,,
-3.443375,36.695795026168,Camping Don Cactus Grupo Campingred,,,,,,,,,,
-1.856226,37.088637026168,Camping Cueva Negra / Centro Vacacional Macenas,,,,,,,,,,
-1.19545,37.580787026168,Camping Los Madriles,,,,,,,,,,
-1.068021,37.583041026168,Camping naturista El Portus,,,,,,,,,,
-0.7438009,37.624725226168,Camping Caravaning Capfun La Manga,,,,,,,,,,
-0.7663768,37.878685226168,CAMPING LO MONTE,,,,,,,,,,
-0.75156,37.975160726168,Camping Florantilles,,,,,,,,,,
-0.8983348,38.051724626168,Camping La Pedrera,,,,,,,,,,
-0.8119444,38.180833326168,Alannia Costa Blanca CAMPING RESORT,,,,,,,,,,
-0.4153132,38.392841426168,Camping El Jardín,,,,,,,,,,
-0.3888889,38.435555626168,Camping Costa Blanca,,,,,,,,,,
-0.2000571,38.515566926168,Camping el Torres,,,,,,,,,,
-0.181456,38.570641026168,Camping Puig Campana,,,,,,,,,,
-2.345321,38.489001026168,Camping Río Mundo,,,,,,,,,,
-2.7795264,41.839968926168,Camping Urbión,,,,,,,,,,
-2.5681189,42.482742326168,camping Fuenmayor,,,,,,,,,,
-2.146357,43.289788026168,Gran Camping Zarautz,,,,,,,,,,
-2.12574,43.285999326168,Camping Orio Kanpina,,,,,,,,,,
-2.41135,43.316811026168,Camping Saturraran,,,,,,,,,,
-3.2408647,43.389422026168,Camping de Castro,,,,,,,,,,
-3.4528447,43.411125426168,Camping Playa del Regatón,,,,,,,,,,
-3.7928861,43.487898226168,Camping Cabo Mayor,,,,,,,,,,
-4.8126442,43.142295626168,Camping El Redondo Picos Europa,,,,,,,,,,
-5.083767,43.347538826168,Camping Covadonga,,,,,,,,,,
-5.1841537,43.386037926168,Camping Sella Camping en Asturias,,,,,,,,,,
-5.088762,43.461329426168,Camping Ribadesella,,,,,,,,,,
-5.2633581,43.498470726168,Camping Costa Verde,,,,,,,,,,
-5.384997,43.527696026168,Camping LA ENSENADA,,,,,,,,,,
-5.3836483,43.527155626168,CAMPING FIN DE SIGLO,,,,,,,,,,
-5.6380026,43.550480526168,Camping Gijón,,,,,,,,,,
-5.8111307,43.625707426168,Camping El Molino,,,,,,,,,,
-6.003168,43.576194026168,Camping Bahinas,,,,,,,,,,
-6.1444659,43.554606526168,Camping L'Amuravela,,,,,,,,,,
-6.189863,43.556888026168,Camping Los Pradones,,,,,,,,,,
-6.52428,43.549092026168,Camping Los Cantiles,,,,,,,,,,
-6.651297,43.560919926168,Camping El Ancla,,,,,,,,,,
-6.7026429,43.481483226168,Camping la Cascada,,,,,,,,,,
-6.9747429,43.548881926168,Camping El Carbayin,,,,,,,,,,
-6.9959456,43.545910226168,Camping Vegamar,,,,,,,,,,
-6.996932,43.551064226168,Camping Playa Penarronda,,,,,,,,,,
-6.9937598,43.539340226168,Camping la Viña,,,,,,,,,,
-7.2002764,43.555060026168,Camping Benquerencia Playa,,,,,,,,,,
-7.2549496,43.577213226168,Camping RAPADOIRA - LLAS,,,,,,,,,,
-6.027819,41.982118026168,Camping La Barca,,,,,,,,,,
-0.553265,38.783191026168,Alfafara Camper Park,,,,,,,,,,
-5.510268,40.270472026168,Camping Restaurante La Guilera,,,,,,,,,,
-0.331795,39.387858026168,Camping Valencia El Saler,,,,,,,,,,
-0.3330817,39.396321926168,Coll Vert Camping,,,,,,,,,,
-0.309918,39.322831026168,Devesa Gardens Camping & Resort,,,,,,,,,,
-0.2633712,39.241898826168,Camping Barraquetes,,,,,,,,,,
-0.6001551,39.419913426168,Camping La Pirámide,,,,,,,,,,
-1.078851,39.139630026168,Camping Las Jaras,,,,,,,,,,
-0.6866169,38.974548826168,Restaurante Camping LaPinada,,,,,,,,,,
-4.0925836,40.931195126168,Camping El Acueducto,,,,,,,,,,
-8.752083,42.269933026168,Camping Tiran,,,,,,,,,,
-8.8324274,42.283067226168,Camping HIO,,,,,,,,,,
-8.353857,42.271132026168,Camping Maceira,,,,,,,,,,
-8.873491,42.418304026168,Camping Preguntoiro,,,,,,,,,,
-8.8501605,42.400759626168,Camping Montalvo Playa,,,,,,,,,,
-8.844863,42.392648026168,Camping Paxariñas,,,,,,,,,,
-8.9180244,42.461603526168,Camping Miami Playa,,,,,,,,,,
-8.9256763,42.454847826168,Camping Siglo XXI,,,,,,,,,,
-8.335568,43.347828226168,Camping Los Manzanos,,,,,,,,,,
-9.1635237,43.104602226168,Camping O'Paraíso,,,,,,,,,,
-8.9064739,42.222279026168,Camping Illas Cíes,,,,,,,,,,
-8.7964707,42.193927626168,Camping de Canido,,,,,,,,,,
-8.7765301,42.205934926168,Camping Playa Samil,,,,,,,,,,
-8.808898,42.138717226168,Camping Playa América,,,,,,,,,,
-8.8258961,42.114450926168,Camping Bayona Playa,,,,,,,,,,
-8.89123,42.086308026168,Camping Mougás,,,,,,,,,,
-8.8471122,41.898681826168,Camping Santa Tecla,,,,,,,,,,
-8.8095815,42.260912626168,Camping Limens,,,,,,,,,,
-8.814071,42.286540026168,Camping Aldán,,,,,,,,,,
-8.9381259,42.376453726168,Camping Isla de Ons,,,,,,,,,,
-2.8474934,38.937108826168,Camping Los Batanes,,,,,,,,,,
-2.887558,38.974030026168,Camping Los Molinos,,,,,,,,,,
-6.4311121,42.000132326168,Camping Bar Restaurante LOS MOLINOS,,,,,,,,,,
1.2420402,38.963366226168,Camping Cala Bassa,,,,,,,,,,
1.3110366,38.977501726168,Camping San Antonio,,,,,,,,,,
1.5754708,38.991153126168,Camping La Playa Ibiza,,,,,,,,,,
1.5738081,39.003628926168,Camping Escana SL,,,,,,,,,,
1.578746,39.007449026168,Camping Cala Nova Ibiza,,,,,,,,,,
2.895571,39.833482726168,Pixarells,,,,,,,,,,
-0.1112939,38.547795226168,Camping Armanello,,,,,,,,,,
-0.1055826,38.545695826168,Camping Villasol,,,,,,,,,,
-0.0986194,38.548572426168,Camping Racó,,,,,,,,,,
-0.096704,38.551073026168,Camping Arena Blanca,,,,,,,,,,
-0.0960134,38.566473026168,Camping Almafra,,,,,,,,,,
-0.0810235,38.567910426168,Camping La Colina,,,,,,,,,,
-0.0644746,38.577659026168,Camping Cap Blanch,,,,,,,,,,
-0.0980556,38.553611126168,Camping Benidorm,,,,,,,,,,
-0.8149922,37.770323826168,Camping Mar Menor,,,,,,,,,,
-8.6546401,43.295466126168,Camping Baldayo (La Coruña),,,,,,,,,,
-8.654561,43.300727026168,Camping Os Delfins,,,,,,,,,,
-8.3584869,43.341654326168,Camping Bastiagueiro,,,,,,,,,,
-8.6223574,43.293258426168,Camping As Nevedas,,,,,,,,,,
0.0642893,42.443630226168,Camping La Gorga,,,,,,,,,,
0.2782943,42.386232026168,Ecocamping Rural Valle de La Fueva,,,,,,,,,,
-6.4299978,42.874957926168,Camping La Zarapica,,,,,,,,,,
-6.254932,43.092529026168,Camping La Pomarada de Somiedo,,,,,,,,,,
-5.4078843,43.152948826168,Camping Los Arrudos Redes Aventura Caleao,,,,,,,,,,
-5.2663463,43.004154726168,Camping Las Nieves,,,,,,,,,,
-5.3265432,42.870309326168,Camping El Soto,,,,,,,,,,
-5.3274357,42.872581726168,CAMPING ENSIDESA,,,,,,,,,,
-5.4018087,42.841284426168,Santa Catalina,,,,,,,,,,
-5.4117449,42.857120326168,La Cota,,,,,,,,,,
-3.8730542,39.646714026168,Camping Las Cabañas Del Mueso,,,,,,,,,,
-4.5275351,39.491197526168,Cabañeros Lincetur Centro de Turismo Rural,,,,,,,,,,
-6.6330625,40.181687526168,Camping El Merino Sierra de Gata,,,,,,,,,,
-5.7502116,40.363365726168,CAMPING CINCO CASTAÑOS,,,,,,,,,,
-1.6095095,37.391841926168,Camping & Bungalows Bellavista,,,,,,,,,,
-1.8689862,37.065184526168,Camping Sopalmo,,,,,,,,,,
-0.2424026,39.177006526168,Camping Santa Marta,,,,,,,,,,
-0.3182349,39.021697426168,Camping La Falaguera,,,,,,,,,,
-0.1773376,39.004574326168,Camping la Naranja,,,,,,,,,,
-0.1633934,38.986216226168,Camping L'Alqueria,,,,,,,,,,
-0.2283065,38.963371126168,Camping La escalada Gandía,,,,,,,,,,
2.9066119,41.712974626168,Camping Cala Llevado,,,,,,,,,,
2.88082,41.707256126168,Camping Sènia Cala Canyelles,,,,,,,,,,
2.826544,41.698427726168,Camping Santa Elena,,,,,,,,,,
2.9141292,41.730078926168,Camping Turismar,,,,,,,,,,
2.9259817,41.728868826168,Camping Can Martí,,,,,,,,,,
2.945141,41.736304026168,Pola Giverola Camp,,,,,,,,,,
2.9492548,41.735346626168,Camping Pola Giverola Latroupe Resort,,,,,,,,,,
3.0337664,41.805564226168,Camping Castell d'Aro,,,,,,,,,,
3.047237,41.810066526168,CAMPING RIEMBAU,,,,,,,,,,
3.0634546,41.805078526168,Vall D'Or Càmping & Beach,,,,,,,,,,
3.08076,41.831084526168,Càmping Sènia Cala Gogo,,,,,,,,,,
-6.3388838,42.939485226168,Laciana Natura,,,,,,,,,,
-6.8943303,39.740692026168,Camping Puente de Alcántara,,,,,,,,,,
-7.1353408,42.642174626168,Acampamento O Caurel,,,,,,,,,,
-6.8043941,42.585798726168,"Camping El Lago, COMPLEJO HOSTELERO DE VILELA",,,,,,,,,,
